{"type":"FeatureCollection","features":[{"type":"Feature","properties":{"canonico":"ARARUAMA","nome":"Araruama","uf":"RJ","planeja":true},"geometry":{"type":"Polygon","coordinates":[[[-42.1822,-22.5522],[-42.1323,-22.6524],[-42.167,-22.6793],[-42.1677,-22.6806],[-42.1877,-22.7156],[-42.2065,-22.7486],[-42.2066,-22.7487],[-42.2153,-22.7639],[-42.2188,-22.77],[-42.2286,-22.7759],[-42.2508,-22.789],[-42.2542,-22.7913],[-42.245,-22.8226],[-42.245,-22.8227],[-42.2398,-22.8399],[-42.2491,-22.8484],[-42.2396,-22.861],[-42.2377,-22.8637],[-42.2838,-22.9001],[-42.2773,-22.9064],[-42.2754,-22.9168],[-42.2825,-22.9261],[-42.291,-22.9281],[-42.291,-22.9391],[-42.3669,-22.9355],[-42.378,-22.9081],[-42.3873,-22.8955],[-42.3857,-22.888],[-42.3831,-22.8837],[-42.3727,-22.8446],[-42.3702,-22.8352],[-42.4129,-22.8286],[-42.4271,-22.8263],[-42.4484,-22.823],[-42.4461,-22.7949],[-42.4461,-22.7941],[-42.444,-22.7685],[-42.4437,-22.7648],[-42.441,-22.731],[-42.4197,-22.7358],[-42.4106,-22.7287],[-42.4009,-22.7303],[-42.3954,-22.7211],[-42.3798,-22.7183],[-42.3691,-22.7235],[-42.361,-22.7127],[-42.357,-22.7131],[-42.3325,-22.7042],[-42.3315,-22.6957],[-42.3238,-22.6833],[-42.3125,-22.6411],[-42.297,-22.6241],[-42.2833,-22.6232],[-42.2708,-22.6137],[-42.2628,-22.6077],[-42.2483,-22.6127],[-42.2406,-22.6078],[-42.2371,-22.6089],[-42.2327,-22.604],[-42.2376,-22.5989],[-42.2263,-22.5958],[-42.2277,-22.5897],[-42.2248,-22.5921],[-42.22,-22.59],[-42.2188,-22.5933],[-42.2157,-22.5922],[-42.2148,-22.586],[-42.204,-22.5807],[-42.2053,-22.5775],[-42.1986,-22.5761],[-42.1924,-22.5666],[-42.193,-22.558],[-42.1875,-22.5546],[-42.1861,-22.5505],[-42.1822,-22.5522]]]}},{"type":"Feature","properties":{"canonico":"ARMACAO DOS BUZIOS","nome":"Armação dos Búzios","uf":"RJ","planeja":true},"geometry":{"type":"Polygon","coordinates":[[[-41.9344,-22.7658],[-41.919,-22.7708],[-41.9104,-22.764],[-41.9124,-22.755],[-41.905,-22.7549],[-41.9007,-22.7504],[-41.8882,-22.7537],[-41.8816,-22.7485],[-41.8823,-22.7403],[-41.8748,-22.7416],[-41.8719,-22.7371],[-41.8678,-22.7413],[-41.8741,-22.7508],[-41.864,-22.7536],[-41.8656,-22.7607],[-41.8715,-22.7611],[-41.8741,-22.7658],[-41.8766,-22.7615],[-41.8784,-22.775],[-41.8849,-22.7683],[-41.889,-22.7702],[-41.8831,-22.7767],[-41.8822,-22.7843],[-41.885,-22.7844],[-41.8874,-22.7774],[-41.8967,-22.7858],[-41.9003,-22.7806],[-41.9054,-22.7825],[-41.9065,-22.7785],[-41.9123,-22.7787],[-41.9315,-22.7967],[-41.9327,-22.8036],[-41.9274,-22.8076],[-41.9298,-22.8131],[-41.9414,-22.809],[-41.9448,-22.8128],[-41.9697,-22.821],[-42.0019,-22.7953],[-42.0084,-22.7812],[-42.0042,-22.771],[-41.9874,-22.7503],[-41.974,-22.7301],[-41.9553,-22.7321],[-41.9573,-22.7375],[-41.9344,-22.7658]]]}},{"type":"Feature","properties":{"canonico":"ARRAIAL DO CABO","nome":"Arraial do Cabo","uf":"RJ","planeja":true},"geometry":{"type":"Polygon","coordinates":[[[-42.2377,-22.8637],[-42.234,-22.8739],[-42.2265,-22.8686],[-42.2203,-22.8685],[-42.2107,-22.8778],[-42.1989,-22.8788],[-42.1896,-22.8742],[-42.1772,-22.8753],[-42.1725,-22.8727],[-42.1606,-22.8792],[-42.1533,-22.8897],[-42.1484,-22.8943],[-42.1232,-22.907],[-42.0905,-22.9324],[-42.0354,-22.9337],[-42.0317,-22.9462],[-42.0212,-22.946],[-42.0255,-22.9558],[-42.0208,-22.9613],[-42.0142,-22.9545],[-42.002,-22.9498],[-42.0086,-22.9596],[-42.0063,-22.962],[-42.0029,-22.959],[-41.9966,-22.96],[-42.0026,-22.9692],[-42.0131,-22.9641],[-42.0157,-22.9673],[-42.0116,-22.9701],[-42.0188,-22.9708],[-42.0189,-22.9789],[-42.0102,-22.9785],[-42.0075,-22.9831],[-42.0122,-22.9881],[-42.0128,-22.9974],[-42.0201,-22.9831],[-42.0298,-22.9825],[-42.0345,-22.9785],[-42.0337,-22.9707],[-42.0456,-22.9629],[-42.0761,-22.9552],[-42.1435,-22.9494],[-42.291,-22.9391],[-42.291,-22.9281],[-42.2825,-22.9261],[-42.2754,-22.9168],[-42.2773,-22.9064],[-42.2838,-22.9001],[-42.2377,-22.8637]]]}},{"type":"Feature","properties":{"canonico":"CABO FRIO","nome":"Cabo Frio","uf":"RJ","planeja":true},"geometry":{"type":"Polygon","coordinates":[[[-42.1315,-22.546],[-42.1331,-22.5549],[-42.1271,-22.5575],[-42.1214,-22.5543],[-42.1243,-22.5641],[-42.1196,-22.566],[-42.1098,-22.5667],[-42.1052,-22.5602],[-42.1005,-22.5642],[-42.096,-22.561],[-42.0919,-22.5629],[-42.0933,-22.5717],[-42.084,-22.5695],[-42.0807,-22.575],[-42.0728,-22.5677],[-42.0614,-22.572],[-42.0612,-22.56],[-42.0479,-22.5621],[-42.0421,-22.5684],[-42.0363,-22.5599],[-42.033,-22.5607],[-42.0298,-22.5708],[-42.0211,-22.5686],[-42.0214,-22.5759],[-42.0168,-22.5775],[-42.0114,-22.5706],[-42.0047,-22.5842],[-41.9988,-22.5763],[-41.9961,-22.5748],[-41.9918,-22.5782],[-41.9961,-22.5933],[-41.9926,-22.5972],[-41.9978,-22.6086],[-41.9976,-22.663],[-41.9878,-22.7094],[-41.9794,-22.7257],[-41.974,-22.7301],[-41.9874,-22.7503],[-42.0042,-22.771],[-42.0084,-22.7812],[-42.0019,-22.7953],[-41.9697,-22.821],[-41.986,-22.8481],[-41.9858,-22.8619],[-41.9827,-22.8661],[-41.9788,-22.8645],[-41.9833,-22.8682],[-41.9809,-22.8724],[-41.9908,-22.8819],[-41.9989,-22.8844],[-42.0015,-22.8894],[-42.0051,-22.8848],[-42.0111,-22.8837],[-42.0239,-22.8932],[-42.0321,-22.907],[-42.0354,-22.9337],[-42.0905,-22.9324],[-42.1232,-22.907],[-42.1141,-22.9083],[-42.1066,-22.8977],[-42.1044,-22.8845],[-42.1075,-22.8677],[-42.098,-22.8613],[-42.0871,-22.8645],[-42.0815,-22.8626],[-42.0758,-22.8601],[-42.0611,-22.8671],[-42.0528,-22.8621],[-42.0458,-22.8671],[-42.0408,-22.8652],[-42.0231,-22.7955],[-42.0237,-22.7942],[-42.0239,-22.7939],[-42.0242,-22.7932],[-42.0341,-22.7732],[-42.0418,-22.7579],[-42.0548,-22.7425],[-42.0548,-22.7424],[-42.0707,-22.7239],[-42.0755,-22.7184],[-42.0891,-22.7025],[-42.1318,-22.6529],[-42.1323,-22.6524],[-42.1822,-22.5522],[-42.1786,-22.5482],[-42.1764,-22.5452],[-42.1715,-22.548],[-42.1558,-22.5457],[-42.1512,-22.5481],[-42.1536,-22.5506],[-42.1514,-22.5561],[-42.1413,-22.5486],[-42.1475,-22.5404],[-42.1388,-22.5401],[-42.1315,-22.546]]]}},{"type":"Feature","properties":{"canonico":"CARAPEBUS","nome":"Carapebus","uf":"RJ","planeja":true},"geometry":{"type":"Polygon","coordinates":[[[-41.6381,-22.1225],[-41.6152,-22.1283],[-41.5923,-22.1342],[-41.5916,-22.1342],[-41.5744,-22.1388],[-41.5571,-22.1553],[-41.5523,-22.1643],[-41.5472,-22.1789],[-41.5433,-22.1866],[-41.5388,-22.1899],[-41.5387,-22.1958],[-41.5492,-22.2001],[-41.5529,-22.2014],[-41.5497,-22.2118],[-41.5483,-22.2261],[-41.5342,-22.2287],[-41.538,-22.2326],[-41.5762,-22.2471],[-41.5914,-22.2536],[-41.6045,-22.2594],[-41.6196,-22.2656],[-41.6886,-22.2996],[-41.6954,-22.286],[-41.7,-22.2805],[-41.705,-22.2761],[-41.708,-22.2657],[-41.705,-22.2574],[-41.7714,-22.179],[-41.7714,-22.1789],[-41.7534,-22.1622],[-41.7213,-22.1337],[-41.7212,-22.1336],[-41.6928,-22.1086],[-41.6381,-22.1225]]]}},{"type":"Feature","properties":{"canonico":"CAMPOS DOS GOYTACAZES","nome":"Campos dos Goytacazes","uf":"RJ","planeja":true},"geometry":{"type":"Polygon","coordinates":[[[-41.3771,-21.1953],[-41.3767,-21.2008],[-41.3707,-21.204],[-41.3632,-21.2024],[-41.3433,-21.2085],[-41.3378,-21.2069],[-41.3336,-21.2094],[-41.3322,-21.2145],[-41.3258,-21.218],[-41.3257,-21.2126],[-41.3167,-21.2133],[-41.3173,-21.2211],[-41.311,-21.2188],[-41.2974,-21.234],[-41.2884,-21.2337],[-41.2856,-21.2373],[-41.2835,-21.2345],[-41.2767,-21.2398],[-41.2721,-21.2461],[-41.2808,-21.2493],[-41.2875,-21.2564],[-41.2887,-21.2712],[-41.2987,-21.2861],[-41.3023,-21.2975],[-41.3097,-21.3016],[-41.3124,-21.3115],[-41.3068,-21.3133],[-41.2989,-21.3107],[-41.2957,-21.3158],[-41.2766,-21.3116],[-41.2619,-21.3142],[-41.2487,-21.3089],[-41.2499,-21.32],[-41.2632,-21.3322],[-41.2586,-21.3318],[-41.2578,-21.3395],[-41.2629,-21.3401],[-41.2704,-21.3535],[-41.2652,-21.3554],[-41.2638,-21.3635],[-41.2553,-21.3621],[-41.2429,-21.3659],[-41.2369,-21.3745],[-41.2371,-21.3813],[-41.2428,-21.3874],[-41.2567,-21.388],[-41.2566,-21.3948],[-41.2661,-21.4066],[-41.2577,-21.4212],[-41.2551,-21.4437],[-41.2584,-21.4656],[-41.255,-21.4756],[-41.2573,-21.4856],[-41.2613,-21.4889],[-41.2595,-21.4905],[-41.2486,-21.5004],[-41.2292,-21.4993],[-41.2436,-21.5203],[-41.2447,-21.522],[-41.2641,-21.5517],[-41.2328,-21.564],[-41.2174,-21.5802],[-41.1941,-21.5905],[-41.1875,-21.59],[-41.1813,-21.5977],[-41.1825,-21.6214],[-41.1909,-21.6602],[-41.1965,-21.6819],[-41.1888,-21.6821],[-41.1879,-21.6866],[-41.178,-21.688],[-41.1643,-21.6809],[-41.1591,-21.6745],[-41.1461,-21.6755],[-41.148,-21.6714],[-41.1388,-21.6715],[-41.1407,-21.6768],[-41.1357,-21.6773],[-41.1442,-21.6936],[-41.1519,-21.6968],[-41.164,-21.7088],[-41.1715,-21.7109],[-41.1761,-21.7176],[-41.1916,-21.7262],[-41.1917,-21.7306],[-41.177,-21.7434],[-41.1717,-21.7489],[-41.1772,-21.7752],[-41.1674,-21.7886],[-41.1544,-21.8077],[-41.1501,-21.8151],[-41.1495,-21.8162],[-41.1511,-21.8381],[-41.1534,-21.8599],[-41.1591,-21.8652],[-41.1588,-21.8707],[-41.1535,-21.8823],[-41.1401,-21.8943],[-41.1274,-21.9118],[-41.0841,-21.9128],[-41.077,-21.9129],[-41.0526,-21.9135],[-41.0524,-21.9135],[-41.0321,-21.9139],[-41.0315,-21.9139],[-41.0017,-21.9146],[-40.9822,-21.915],[-40.9797,-21.9151],[-40.9754,-21.9303],[-40.9741,-21.9681],[-40.9848,-21.9994],[-40.9924,-22.0095],[-41.0092,-22.022],[-41.0477,-22.0414],[-41.1306,-22.0905],[-41.132,-22.0899],[-41.1455,-22.0894],[-41.1413,-22.0947],[-41.1454,-22.0983],[-41.1487,-22.0953],[-41.1519,-22.0985],[-41.1518,-22.0945],[-41.159,-22.0935],[-41.1603,-22.1017],[-41.1765,-22.0952],[-41.1793,-22.0987],[-41.1892,-22.0986],[-41.1897,-22.1009],[-41.193,-22.0969],[-41.1912,-22.1031],[-41.1954,-22.1043],[-41.1989,-22.1013],[-41.2012,-22.1035],[-41.2076,-22.0961],[-41.2228,-22.0971],[-41.2297,-22.0949],[-41.24,-22.0987],[-41.2567,-22.0992],[-41.277,-22.0649],[-41.3093,-22.0486],[-41.3487,-22.0286],[-41.4401,-21.9822],[-41.4491,-21.9733],[-41.4516,-21.9746],[-41.4527,-21.9823],[-41.4662,-21.9858],[-41.4709,-22.0011],[-41.4748,-22.0027],[-41.4795,-21.9986],[-41.5002,-22.009],[-41.5168,-22.0156],[-41.5322,-22.0363],[-41.5425,-22.0529],[-41.5584,-22.0538],[-41.5902,-22.0472],[-41.6012,-22.0511],[-41.6164,-22.0463],[-41.6215,-22.0502],[-41.6447,-22.052],[-41.6525,-22.058],[-41.6576,-22.0573],[-41.6761,-22.0582],[-41.6825,-22.0543],[-41.6911,-22.0501],[-41.6971,-22.0533],[-41.6998,-22.0491],[-41.7169,-22.0592],[-41.7228,-22.0695],[-41.726,-22.0689],[-41.7338,-22.0759],[-41.7368,-22.0832],[-41.74,-22.0859],[-41.7503,-22.0855],[-41.7536,-22.0822],[-41.7546,-22.0709],[-41.7612,-22.063],[-41.7591,-22.0528],[-41.766,-22.0455],[-41.7629,-22.0431],[-41.7633,-22.0344],[-41.7731,-22.0214],[-41.7634,-22.0175],[-41.7631,-22.0237],[-41.749,-22.0102],[-41.7411,-22.0083],[-41.73,-21.9956],[-41.7213,-21.9924],[-41.7158,-21.9823],[-41.7194,-21.967],[-41.7124,-21.9611],[-41.7204,-21.944],[-41.7141,-21.9229],[-41.716,-21.9089],[-41.7106,-21.9049],[-41.7125,-21.9018],[-41.7069,-21.8925],[-41.7052,-21.8919],[-41.7108,-21.8925],[-41.7194,-21.8866],[-41.7394,-21.8897],[-41.7879,-21.8877],[-41.789,-21.8804],[-41.7969,-21.8763],[-41.8379,-21.8873],[-41.8571,-21.8846],[-41.887,-21.8804],[-41.884,-21.8716],[-41.8885,-21.863],[-41.8538,-21.8389],[-41.8396,-21.8342],[-41.8329,-21.8191],[-41.8205,-21.8132],[-41.8114,-21.8038],[-41.8093,-21.7966],[-41.795,-21.7929],[-41.7944,-21.7869],[-41.7953,-21.7836],[-41.7892,-21.7814],[-41.7764,-21.7864],[-41.7474,-21.7887],[-41.7514,-21.7799],[-41.7361,-21.7625],[-41.731,-21.7635],[-41.7173,-21.7524],[-41.7122,-21.7537],[-41.7121,-21.7537],[-41.6995,-21.7388],[-41.7009,-21.7253],[-41.6956,-21.714],[-41.6916,-21.7094],[-41.6893,-21.7115],[-41.6828,-21.7069],[-41.6825,-21.7028],[-41.6646,-21.6954],[-41.6504,-21.6873],[-41.6399,-21.6694],[-41.6179,-21.6696],[-41.6099,-21.6638],[-41.59,-21.6636],[-41.5835,-21.6529],[-41.5736,-21.6492],[-41.5739,-21.6446],[-41.5686,-21.6397],[-41.5644,-21.6422],[-41.5557,-21.6395],[-41.5509,-21.6283],[-41.5413,-21.6267],[-41.5388,-21.6213],[-41.5344,-21.6226],[-41.5036,-21.6498],[-41.4897,-21.6741],[-41.4283,-21.6165],[-41.4281,-21.6163],[-41.4249,-21.6101],[-41.4191,-21.6097],[-41.4081,-21.6072],[-41.4022,-21.6006],[-41.4002,-21.5829],[-41.3968,-21.5624],[-41.3728,-21.5406],[-41.3691,-21.5334],[-41.3735,-21.5202],[-41.3704,-21.5143],[-41.3733,-21.5115],[-41.3716,-21.5048],[-41.3898,-21.482],[-41.3893,-21.4785],[-41.3942,-21.4786],[-41.3978,-21.472],[-41.4125,-21.4632],[-41.4122,-21.4519],[-41.412,-21.4401],[-41.4172,-21.4337],[-41.4243,-21.4269],[-41.4302,-21.4135],[-41.4467,-21.4064],[-41.4494,-21.3977],[-41.4501,-21.3979],[-41.5125,-21.417],[-41.5467,-21.4275],[-41.5518,-21.4291],[-41.5528,-21.4258],[-41.5723,-21.3579],[-41.5841,-21.3164],[-41.5843,-21.3158],[-41.5875,-21.3118],[-41.5787,-21.306],[-41.5497,-21.292],[-41.537,-21.2791],[-41.5358,-21.281],[-41.5244,-21.2738],[-41.5254,-21.2676],[-41.5147,-21.2613],[-41.5018,-21.2612],[-41.498,-21.2484],[-41.4864,-21.2376],[-41.4706,-21.231],[-41.4665,-21.2262],[-41.4669,-21.2236],[-41.4679,-21.2157],[-41.4697,-21.2022],[-41.4665,-21.2041],[-41.4599,-21.2069],[-41.4537,-21.2079],[-41.4475,-21.2136],[-41.4352,-21.2155],[-41.4169,-21.1994],[-41.4128,-21.2012],[-41.4103,-21.1986],[-41.4064,-21.2023],[-41.403,-21.1984],[-41.395,-21.2011],[-41.3928,-21.2022],[-41.3879,-21.1989],[-41.3819,-21.1998],[-41.381,-21.1959],[-41.3771,-21.1953]]]}},{"type":"Feature","properties":{"canonico":"CASIMIRO DE ABREU","nome":"Casimiro de Abreu","uf":"RJ","planeja":true},"geometry":{"type":"Polygon","coordinates":[[[-42.2113,-22.3612],[-42.206,-22.368],[-42.2051,-22.3701],[-42.2155,-22.3739],[-42.2158,-22.3823],[-42.2106,-22.3807],[-42.2074,-22.3871],[-42.2141,-22.3911],[-42.2106,-22.3953],[-42.2191,-22.4056],[-42.2051,-22.4135],[-42.2073,-22.4204],[-42.2035,-22.4281],[-42.1885,-22.4327],[-42.1792,-22.4281],[-42.1716,-22.4213],[-42.1617,-22.4275],[-42.1617,-22.4233],[-42.1527,-22.4212],[-42.1457,-22.4272],[-42.1412,-22.4244],[-42.1379,-22.4127],[-42.1266,-22.4123],[-42.1244,-22.4055],[-42.1172,-22.4019],[-42.0994,-22.4048],[-42.0989,-22.4178],[-42.106,-22.4357],[-42.0884,-22.4388],[-42.0765,-22.4308],[-42.0724,-22.4316],[-42.0689,-22.4353],[-42.0635,-22.4337],[-42.0645,-22.4225],[-42.0475,-22.4238],[-42.0368,-22.4276],[-42.0365,-22.4318],[-42.0153,-22.4252],[-42.0197,-22.43],[-42.0206,-22.4435],[-42.02,-22.4444],[-42.0193,-22.4492],[-42.0291,-22.4555],[-42.0272,-22.4685],[-42.0157,-22.4838],[-42.0057,-22.4855],[-41.9915,-22.5029],[-41.9896,-22.5065],[-41.9901,-22.5074],[-41.9898,-22.5142],[-41.9873,-22.5403],[-41.9867,-22.5462],[-41.9791,-22.5621],[-41.9891,-22.5985],[-41.9926,-22.5972],[-41.9961,-22.5933],[-41.9918,-22.5782],[-41.9961,-22.5748],[-41.9988,-22.5763],[-42.0047,-22.5842],[-42.0114,-22.5706],[-42.0168,-22.5775],[-42.0214,-22.5759],[-42.0211,-22.5686],[-42.0298,-22.5708],[-42.033,-22.5607],[-42.0363,-22.5599],[-42.0421,-22.5684],[-42.0479,-22.5621],[-42.0612,-22.56],[-42.0614,-22.572],[-42.0728,-22.5677],[-42.0807,-22.575],[-42.084,-22.5695],[-42.0933,-22.5717],[-42.0919,-22.5629],[-42.096,-22.561],[-42.1005,-22.5642],[-42.1052,-22.5602],[-42.1098,-22.5667],[-42.1196,-22.566],[-42.1243,-22.5641],[-42.1214,-22.5543],[-42.1271,-22.5575],[-42.1331,-22.5549],[-42.1315,-22.546],[-42.1388,-22.5401],[-42.1475,-22.5404],[-42.1413,-22.5486],[-42.1514,-22.5561],[-42.1536,-22.5506],[-42.1512,-22.5481],[-42.1558,-22.5457],[-42.1715,-22.548],[-42.1764,-22.5452],[-42.1786,-22.5482],[-42.1822,-22.5522],[-42.1861,-22.5505],[-42.1875,-22.5546],[-42.1929,-22.5475],[-42.1975,-22.5478],[-42.2053,-22.5408],[-42.2147,-22.5384],[-42.2468,-22.5456],[-42.2519,-22.5438],[-42.2548,-22.5319],[-42.2621,-22.5307],[-42.2606,-22.527],[-42.2656,-22.519],[-42.2613,-22.5055],[-42.2672,-22.4981],[-42.2706,-22.4859],[-42.2829,-22.478],[-42.2897,-22.4662],[-42.2942,-22.4654],[-42.3016,-22.4654],[-42.304,-22.4578],[-42.2967,-22.4423],[-42.2943,-22.4302],[-42.2893,-22.4279],[-42.2804,-22.4119],[-42.2705,-22.4023],[-42.2787,-22.4015],[-42.29,-22.3906],[-42.2764,-22.3787],[-42.2596,-22.371],[-42.258,-22.366],[-42.2515,-22.367],[-42.2402,-22.361],[-42.2228,-22.3582],[-42.2256,-22.352],[-42.2184,-22.3548],[-42.2175,-22.3594],[-42.2113,-22.3612]]]}},{"type":"Feature","properties":{"canonico":"GUAPIMIRIM","nome":"Guapimirim","uf":"RJ","planeja":true},"geometry":{"type":"Polygon","coordinates":[[[-43.0404,-22.4554],[-43.033,-22.4616],[-43.0256,-22.4548],[-43.0246,-22.461],[-43.0161,-22.4657],[-42.999,-22.4586],[-42.9891,-22.4617],[-42.9875,-22.462],[-42.9738,-22.47],[-42.9629,-22.4636],[-42.9574,-22.4651],[-42.9544,-22.4569],[-42.9452,-22.4552],[-42.9417,-22.4569],[-42.9281,-22.4494],[-42.9252,-22.4529],[-42.9119,-22.4544],[-42.9205,-22.4602],[-42.9213,-22.4751],[-42.9065,-22.4962],[-42.8918,-22.5026],[-42.8883,-22.512],[-42.891,-22.514],[-42.8979,-22.5185],[-42.8924,-22.5234],[-42.889,-22.5384],[-42.8878,-22.5408],[-42.8875,-22.5412],[-42.887,-22.5421],[-42.8821,-22.5493],[-42.8691,-22.5622],[-42.8663,-22.5708],[-42.8748,-22.576],[-42.8851,-22.5862],[-42.8875,-22.5915],[-42.9063,-22.6003],[-42.9101,-22.6167],[-42.9031,-22.6255],[-42.9002,-22.6361],[-42.9057,-22.6528],[-42.9068,-22.6548],[-42.9125,-22.6556],[-42.9093,-22.6598],[-42.9145,-22.6626],[-42.9122,-22.6713],[-42.9277,-22.6929],[-42.9342,-22.6926],[-42.9337,-22.6975],[-42.9429,-22.6985],[-42.9436,-22.706],[-42.9525,-22.7123],[-42.9593,-22.7147],[-42.9621,-22.7239],[-42.9667,-22.7216],[-42.974,-22.7308],[-42.9778,-22.7265],[-42.9918,-22.727],[-43.0059,-22.7144],[-43.0133,-22.7176],[-43.0145,-22.7239],[-43.0274,-22.7247],[-43.0345,-22.7162],[-43.0352,-22.7096],[-43.0319,-22.705],[-43.0261,-22.7052],[-43.0354,-22.6979],[-43.0316,-22.6921],[-43.0382,-22.6881],[-43.0399,-22.691],[-43.0437,-22.685],[-43.0408,-22.6784],[-43.0356,-22.6787],[-43.0322,-22.674],[-43.0279,-22.6652],[-43.0224,-22.664],[-43.0216,-22.651],[-43.0128,-22.637],[-43.0154,-22.57],[-43.0157,-22.5624],[-43.0159,-22.557],[-43.016,-22.5521],[-43.019,-22.5255],[-43.0228,-22.5223],[-43.0219,-22.5145],[-43.0284,-22.5135],[-43.0278,-22.4987],[-43.0469,-22.4875],[-43.0551,-22.4884],[-43.0615,-22.4847],[-43.0619,-22.4832],[-43.0562,-22.48],[-43.0553,-22.4676],[-43.0475,-22.4597],[-43.042,-22.4593],[-43.0404,-22.4554]]]}},{"type":"Feature","properties":{"canonico":"MACAE","nome":"Macaé","uf":"RJ","planeja":true},"geometry":{"type":"Polygon","coordinates":[[[-41.6983,-22.4101],[-41.6949,-22.4167],[-41.7022,-22.4163],[-41.7054,-22.4104],[-41.7054,-22.4072],[-41.6971,-22.4029],[-41.6936,-22.4073],[-41.6983,-22.4101]],[[-41.6857,-22.3966],[-41.6868,-22.4018],[-41.6916,-22.4003],[-41.6919,-22.3971],[-41.6857,-22.3966]],[[-41.9713,-22.1313],[-41.9727,-22.1564],[-41.9528,-22.1514],[-41.9413,-22.1583],[-41.9342,-22.1644],[-41.9205,-22.1613],[-41.9192,-22.1705],[-41.9136,-22.1689],[-41.9079,-22.1744],[-41.9112,-22.1845],[-41.9006,-22.1869],[-41.904,-22.1984],[-41.9177,-22.2154],[-41.9186,-22.2243],[-41.9149,-22.23],[-41.9025,-22.2308],[-41.8997,-22.2378],[-41.9062,-22.2428],[-41.8942,-22.2481],[-41.8923,-22.2563],[-41.8857,-22.2585],[-41.8863,-22.2684],[-41.8781,-22.2744],[-41.8634,-22.2737],[-41.8588,-22.2667],[-41.8517,-22.243],[-41.8498,-22.2341],[-41.8396,-22.199],[-41.8193,-22.1858],[-41.8238,-22.1448],[-41.7714,-22.1789],[-41.7714,-22.179],[-41.705,-22.2574],[-41.708,-22.2657],[-41.705,-22.2761],[-41.7,-22.2805],[-41.6954,-22.286],[-41.6886,-22.2996],[-41.6949,-22.3035],[-41.7405,-22.3402],[-41.7533,-22.3458],[-41.7667,-22.3549],[-41.7734,-22.364],[-41.7744,-22.3736],[-41.7666,-22.3768],[-41.7707,-22.3839],[-41.7675,-22.3884],[-41.7874,-22.3981],[-41.7901,-22.3996],[-41.8174,-22.4163],[-41.8254,-22.409],[-41.8473,-22.4103],[-41.854,-22.4079],[-41.8607,-22.4178],[-41.8663,-22.4203],[-41.8717,-22.4185],[-41.8734,-22.4176],[-41.8765,-22.4186],[-41.8931,-22.412],[-41.9068,-22.3994],[-41.941,-22.3921],[-41.9373,-22.3774],[-41.9424,-22.3787],[-41.9454,-22.3922],[-41.9509,-22.3928],[-41.953,-22.3881],[-41.965,-22.3874],[-41.9896,-22.3976],[-42.001,-22.3983],[-42.0077,-22.3954],[-42.0085,-22.395],[-42.018,-22.3909],[-42.0242,-22.3886],[-42.0466,-22.4033],[-42.0645,-22.4225],[-42.0635,-22.4337],[-42.0689,-22.4353],[-42.0724,-22.4316],[-42.0765,-22.4308],[-42.0884,-22.4388],[-42.106,-22.4357],[-42.0989,-22.4178],[-42.0994,-22.4048],[-42.1172,-22.4019],[-42.1244,-22.4055],[-42.1266,-22.4123],[-42.1379,-22.4127],[-42.1412,-22.4244],[-42.1457,-22.4272],[-42.1527,-22.4212],[-42.1617,-22.4233],[-42.1617,-22.4275],[-42.1716,-22.4213],[-42.1792,-22.4281],[-42.1885,-22.4327],[-42.2035,-22.4281],[-42.2073,-22.4204],[-42.2051,-22.4135],[-42.2191,-22.4056],[-42.2106,-22.3953],[-42.2141,-22.3911],[-42.2074,-22.3871],[-42.2106,-22.3807],[-42.2158,-22.3823],[-42.2155,-22.3739],[-42.2051,-22.3701],[-42.206,-22.368],[-42.2083,-22.3614],[-42.2165,-22.3415],[-42.2616,-22.3208],[-42.2656,-22.3155],[-42.2525,-22.31],[-42.2507,-22.3063],[-42.2478,-22.2934],[-42.2389,-22.2858],[-42.2336,-22.2881],[-42.2271,-22.2742],[-42.2112,-22.2603],[-42.2038,-22.2543],[-42.1941,-22.2453],[-42.1829,-22.2429],[-42.1782,-22.2327],[-42.1679,-22.224],[-42.1627,-22.2213],[-42.1587,-22.2147],[-42.147,-22.2097],[-42.1283,-22.2136],[-42.1137,-22.2063],[-42.1076,-22.2088],[-42.0967,-22.2016],[-42.0925,-22.2006],[-42.0962,-22.1923],[-42.0931,-22.1885],[-42.097,-22.1834],[-42.0893,-22.1721],[-42.0756,-22.1633],[-42.0398,-22.1607],[-42.0268,-22.157],[-42.0241,-22.152],[-42.0197,-22.1467],[-42.006,-22.1421],[-41.9781,-22.1246],[-41.9713,-22.1313]]]}},{"type":"Feature","properties":{"canonico":"MARICA","nome":"Maricá","uf":"RJ","planeja":true},"geometry":{"type":"Polygon","coordinates":[[[-42.7316,-22.8412],[-42.7152,-22.8535],[-42.7017,-22.8493],[-42.6989,-22.8557],[-42.6698,-22.8566],[-42.6608,-22.8586],[-42.6716,-22.8701],[-42.6788,-22.8784],[-42.6767,-22.8975],[-42.6758,-22.9038],[-42.6804,-22.9095],[-42.6701,-22.9103],[-42.6556,-22.9038],[-42.642,-22.9098],[-42.6359,-22.9371],[-42.6784,-22.9455],[-42.684,-22.9496],[-42.6853,-22.9588],[-42.6919,-22.962],[-42.6981,-22.9573],[-42.7139,-22.9557],[-42.8128,-22.9612],[-42.8541,-22.964],[-42.876,-22.9662],[-42.918,-22.9745],[-42.9941,-22.9692],[-43.0115,-22.9714],[-43.0138,-22.9764],[-43.0233,-22.9708],[-43.0219,-22.9604],[-42.9996,-22.9421],[-42.9919,-22.9394],[-42.9745,-22.918],[-42.9551,-22.908],[-42.9543,-22.9005],[-42.9541,-22.8916],[-42.9227,-22.8816],[-42.9021,-22.8777],[-42.8855,-22.8671],[-42.8738,-22.8697],[-42.8656,-22.8722],[-42.8641,-22.8721],[-42.8618,-22.8705],[-42.8588,-22.8691],[-42.8463,-22.8724],[-42.837,-22.8705],[-42.8339,-22.8691],[-42.8254,-22.8587],[-42.8181,-22.8591],[-42.7966,-22.8496],[-42.7655,-22.8432],[-42.7562,-22.8501],[-42.749,-22.8502],[-42.7332,-22.8407],[-42.7316,-22.8412]]]}},{"type":"Feature","properties":{"canonico":"NITEROI","nome":"Niterói","uf":"RJ","planeja":true},"geometry":{"type":"Polygon","coordinates":[[[-43.0293,-22.8762],[-43.008,-22.8916],[-42.9903,-22.8881],[-42.9867,-22.8934],[-42.9859,-22.9111],[-42.9802,-22.9166],[-42.9745,-22.9063],[-42.9543,-22.9005],[-42.9551,-22.908],[-42.9745,-22.918],[-42.9919,-22.9394],[-42.9996,-22.9421],[-43.0219,-22.9604],[-43.0233,-22.9708],[-43.0138,-22.9764],[-43.0233,-22.9752],[-43.0243,-22.9801],[-43.0277,-22.9807],[-43.0307,-22.9761],[-43.0394,-22.9745],[-43.0517,-22.9824],[-43.0516,-22.9776],[-43.0459,-22.9725],[-43.0536,-22.9629],[-43.0823,-22.9553],[-43.1107,-22.9537],[-43.1138,-22.9519],[-43.1135,-22.9465],[-43.1199,-22.9457],[-43.1171,-22.938],[-43.1353,-22.9387],[-43.1263,-22.9349],[-43.124,-22.923],[-43.1202,-22.9234],[-43.116,-22.9311],[-43.1126,-22.9294],[-43.1141,-22.9326],[-43.1082,-22.9376],[-43.1021,-22.9356],[-43.095,-22.9258],[-43.0965,-22.9148],[-43.1108,-22.9161],[-43.1166,-22.9051],[-43.1242,-22.9059],[-43.131,-22.9115],[-43.1369,-22.9029],[-43.1246,-22.8949],[-43.1261,-22.8852],[-43.1337,-22.8851],[-43.1333,-22.88],[-43.13,-22.8768],[-43.1224,-22.8777],[-43.1204,-22.8826],[-43.1149,-22.8809],[-43.1117,-22.8679],[-43.103,-22.8571],[-43.0994,-22.8588],[-43.0509,-22.8739],[-43.0293,-22.8762]]]}},{"type":"Feature","properties":{"canonico":"PARATY","nome":"Paraty","uf":"RJ","planeja":true},"geometry":{"type":"Polygon","coordinates":[[[-44.7185,-23.3585],[-44.7191,-23.359],[-44.7197,-23.3589],[-44.7202,-23.3581],[-44.7192,-23.3582],[-44.7185,-23.3585]],[[-44.672,-23.357],[-44.6725,-23.3571],[-44.673,-23.3568],[-44.6731,-23.3563],[-44.6729,-23.3558],[-44.6726,-23.3554],[-44.6722,-23.3551],[-44.6714,-23.3549],[-44.671,-23.3552],[-44.6712,-23.3557],[-44.6718,-23.3565],[-44.672,-23.357]],[[-44.5687,-23.348],[-44.5682,-23.3483],[-44.5671,-23.3479],[-44.5667,-23.3483],[-44.5668,-23.3493],[-44.5671,-23.3497],[-44.5675,-23.3507],[-44.5677,-23.3511],[-44.5682,-23.3515],[-44.5695,-23.3523],[-44.5702,-23.3531],[-44.5707,-23.353],[-44.571,-23.3526],[-44.5699,-23.3508],[-44.5697,-23.3498],[-44.5697,-23.3488],[-44.5695,-23.3484],[-44.5692,-23.348],[-44.5687,-23.348]],[[-44.5706,-23.2677],[-44.571,-23.2678],[-44.5713,-23.2672],[-44.5708,-23.2662],[-44.5703,-23.2655],[-44.5686,-23.2647],[-44.5678,-23.2644],[-44.5673,-23.2645],[-44.5679,-23.2652],[-44.5685,-23.2656],[-44.57,-23.2673],[-44.5706,-23.2677]],[[-44.6685,-23.2399],[-44.6702,-23.2403],[-44.6708,-23.2403],[-44.6711,-23.2399],[-44.6711,-23.2394],[-44.6709,-23.2389],[-44.6703,-23.2387],[-44.6697,-23.2387],[-44.6681,-23.2388],[-44.6679,-23.2392],[-44.668,-23.2397],[-44.6685,-23.2399]],[[-44.6336,-23.2254],[-44.6491,-23.2308],[-44.6464,-23.2268],[-44.6336,-23.2254]],[[-44.5562,-23.224],[-44.5567,-23.2241],[-44.5572,-23.2239],[-44.5574,-23.2235],[-44.5571,-23.2224],[-44.5565,-23.2212],[-44.5561,-23.2208],[-44.5544,-23.2206],[-44.554,-23.2202],[-44.5537,-23.2206],[-44.5537,-23.2211],[-44.5539,-23.2216],[-44.5548,-23.2221],[-44.5555,-23.2232],[-44.5562,-23.224]],[[-44.582,-23.2105],[-44.5817,-23.211],[-44.5821,-23.2114],[-44.583,-23.212],[-44.5835,-23.2122],[-44.584,-23.2123],[-44.5845,-23.2119],[-44.5847,-23.2115],[-44.5845,-23.2109],[-44.584,-23.2108],[-44.5835,-23.2109],[-44.582,-23.2105]],[[-44.6894,-23.2144],[-44.6908,-23.2181],[-44.693,-23.2162],[-44.6894,-23.2144]],[[-44.5936,-23.2021],[-44.5873,-23.2068],[-44.5842,-23.2046],[-44.586,-23.2096],[-44.5996,-23.217],[-44.6023,-23.2226],[-44.6183,-23.2243],[-44.62,-23.2218],[-44.6045,-23.2153],[-44.5936,-23.2021]],[[-44.5805,-23.1985],[-44.579,-23.2031],[-44.5838,-23.2006],[-44.5805,-23.1985]],[[-44.7087,-23.2049],[-44.7092,-23.2052],[-44.7096,-23.2049],[-44.7101,-23.2048],[-44.7102,-23.2043],[-44.7095,-23.204],[-44.709,-23.2041],[-44.7086,-23.2044],[-44.7087,-23.2049]],[[-44.5728,-23.189],[-44.5765,-23.1899],[-44.5731,-23.1835],[-44.5728,-23.189]],[[-44.6576,-23.1813],[-44.657,-23.188],[-44.6594,-23.1854],[-44.6576,-23.1813]],[[-44.6823,-23.1786],[-44.6838,-23.1792],[-44.6843,-23.179],[-44.6844,-23.1783],[-44.6839,-23.1774],[-44.6836,-23.1767],[-44.6821,-23.177],[-44.6819,-23.178],[-44.6823,-23.1786]],[[-44.6639,-23.1633],[-44.6645,-23.1634],[-44.6654,-23.1627],[-44.6658,-23.1611],[-44.6656,-23.1607],[-44.6647,-23.1603],[-44.6644,-23.1599],[-44.6642,-23.1593],[-44.6636,-23.1585],[-44.662,-23.159],[-44.6616,-23.1592],[-44.6616,-23.1597],[-44.6617,-23.1602],[-44.6621,-23.1607],[-44.6632,-23.1617],[-44.6637,-23.1629],[-44.6639,-23.1633]],[[-44.6815,-23.1571],[-44.6918,-23.1695],[-44.6941,-23.1612],[-44.6943,-23.156],[-44.684,-23.1512],[-44.6815,-23.1571]],[[-44.675,-23.1329],[-44.6755,-23.1331],[-44.676,-23.133],[-44.6764,-23.1326],[-44.6759,-23.132],[-44.6749,-23.1315],[-44.6746,-23.1319],[-44.6747,-23.1325],[-44.675,-23.1329]],[[-44.6856,-23.1308],[-44.6861,-23.1309],[-44.6871,-23.1307],[-44.6875,-23.1303],[-44.6877,-23.1299],[-44.6874,-23.1296],[-44.6863,-23.1291],[-44.6854,-23.1284],[-44.6849,-23.1282],[-44.6844,-23.1282],[-44.6841,-23.1287],[-44.6844,-23.1297],[-44.6847,-23.1301],[-44.6851,-23.1305],[-44.6856,-23.1308]],[[-44.678,-23.1266],[-44.6784,-23.1269],[-44.679,-23.127],[-44.6795,-23.1268],[-44.6798,-23.1263],[-44.6796,-23.1258],[-44.6777,-23.1243],[-44.6774,-23.1247],[-44.6773,-23.1258],[-44.6778,-23.1261],[-44.678,-23.1266]],[[-44.6759,-23.1107],[-44.6748,-23.1111],[-44.6743,-23.1109],[-44.6737,-23.1109],[-44.6734,-23.1112],[-44.6733,-23.1118],[-44.6736,-23.1127],[-44.674,-23.113],[-44.6751,-23.1137],[-44.6755,-23.1141],[-44.676,-23.1144],[-44.6772,-23.1145],[-44.6777,-23.1145],[-44.678,-23.1141],[-44.6779,-23.1135],[-44.6773,-23.1126],[-44.6773,-23.1113],[-44.6771,-23.1109],[-44.6765,-23.1107],[-44.6759,-23.1107]],[[-44.6797,-23.1081],[-44.6792,-23.1083],[-44.6787,-23.1091],[-44.6787,-23.1096],[-44.6791,-23.1099],[-44.6796,-23.1097],[-44.6806,-23.1093],[-44.6807,-23.1088],[-44.6807,-23.1082],[-44.6802,-23.1082],[-44.6797,-23.1081]],[[-44.688,-23.1095],[-44.6885,-23.1096],[-44.6887,-23.1092],[-44.6886,-23.1087],[-44.6877,-23.1076],[-44.6871,-23.1072],[-44.6868,-23.1069],[-44.6867,-23.1064],[-44.6862,-23.1062],[-44.6857,-23.1062],[-44.6854,-23.1066],[-44.6857,-23.107],[-44.6865,-23.1078],[-44.687,-23.1087],[-44.6875,-23.1092],[-44.688,-23.1095]],[[-44.6691,-23.0965],[-44.6694,-23.0973],[-44.6698,-23.0978],[-44.6707,-23.0984],[-44.6712,-23.0987],[-44.6724,-23.0989],[-44.6729,-23.0989],[-44.6734,-23.0981],[-44.673,-23.0979],[-44.6724,-23.0975],[-44.672,-23.0971],[-44.6715,-23.0968],[-44.6705,-23.0968],[-44.6699,-23.0966],[-44.6695,-23.0963],[-44.6691,-23.0965]],[[-44.5957,-23.0892],[-44.5961,-23.0896],[-44.5965,-23.0892],[-44.596,-23.0886],[-44.5957,-23.0877],[-44.5949,-23.0867],[-44.5949,-23.0862],[-44.5946,-23.0853],[-44.5935,-23.0863],[-44.5934,-23.0868],[-44.5937,-23.0877],[-44.5947,-23.0887],[-44.5957,-23.0892]],[[-44.6839,-23.0881],[-44.6841,-23.0886],[-44.6846,-23.0884],[-44.6846,-23.0879],[-44.6842,-23.0876],[-44.684,-23.0871],[-44.6836,-23.0869],[-44.6835,-23.0863],[-44.6825,-23.0867],[-44.6839,-23.0881]],[[-44.6018,-23.0678],[-44.6021,-23.0688],[-44.6026,-23.069],[-44.6033,-23.0683],[-44.6038,-23.0681],[-44.6042,-23.0683],[-44.6047,-23.0679],[-44.604,-23.0672],[-44.6034,-23.067],[-44.6029,-23.0669],[-44.6024,-23.067],[-44.6018,-23.0678]],[[-44.6308,-23.0678],[-44.6297,-23.0712],[-44.6328,-23.07],[-44.6308,-23.0678]],[[-44.5958,-23.0671],[-44.5963,-23.0672],[-44.5968,-23.067],[-44.5967,-23.0665],[-44.5962,-23.0657],[-44.5952,-23.0653],[-44.5947,-23.0661],[-44.5949,-23.0666],[-44.5958,-23.0671]],[[-44.6417,-23.0746],[-44.6445,-23.0751],[-44.645,-23.0718],[-44.6423,-23.0678],[-44.6356,-23.068],[-44.6417,-23.0746]],[[-44.6281,-23.0604],[-44.627,-23.0607],[-44.6264,-23.0606],[-44.6261,-23.061],[-44.6263,-23.0615],[-44.6268,-23.0619],[-44.6271,-23.0623],[-44.6273,-23.0628],[-44.6277,-23.063],[-44.6292,-23.0629],[-44.6297,-23.0626],[-44.6299,-23.0621],[-44.6287,-23.0605],[-44.6281,-23.0604]],[[-44.5574,-23.0633],[-44.5633,-23.0671],[-44.5644,-23.065],[-44.557,-23.0558],[-44.5523,-23.056],[-44.5574,-23.0633]],[[-44.6079,-23.0642],[-44.609,-23.0644],[-44.6092,-23.064],[-44.6089,-23.0634],[-44.6087,-23.0627],[-44.6088,-23.0616],[-44.6087,-23.061],[-44.6076,-23.0598],[-44.6039,-23.0581],[-44.6035,-23.0573],[-44.6025,-23.0568],[-44.6022,-23.0564],[-44.6016,-23.056],[-44.6011,-23.0559],[-44.6008,-23.0562],[-44.601,-23.0568],[-44.6015,-23.0574],[-44.602,-23.0578],[-44.6032,-23.0592],[-44.6036,-23.0594],[-44.6047,-23.0597],[-44.6051,-23.06],[-44.6055,-23.0604],[-44.6061,-23.0614],[-44.6068,-23.0622],[-44.6075,-23.0637],[-44.6079,-23.0642]],[[-44.6201,-23.0587],[-44.6205,-23.0588],[-44.6211,-23.0588],[-44.6216,-23.0591],[-44.622,-23.0594],[-44.6225,-23.0592],[-44.6229,-23.0589],[-44.6232,-23.0593],[-44.623,-23.0598],[-44.6234,-23.0601],[-44.6243,-23.0597],[-44.6245,-23.0592],[-44.6245,-23.0586],[-44.6244,-23.0582],[-44.624,-23.0573],[-44.6236,-23.0568],[-44.623,-23.0566],[-44.6212,-23.0569],[-44.6208,-23.0571],[-44.6204,-23.0575],[-44.6199,-23.0579],[-44.6198,-23.0583],[-44.6201,-23.0587]],[[-44.5595,-23.0526],[-44.5597,-23.0531],[-44.5602,-23.0534],[-44.5607,-23.0535],[-44.5619,-23.0532],[-44.5624,-23.0533],[-44.5632,-23.0529],[-44.5628,-23.0527],[-44.5622,-23.0519],[-44.5618,-23.0516],[-44.5606,-23.0513],[-44.5601,-23.0513],[-44.5597,-23.0516],[-44.5595,-23.0521],[-44.5595,-23.0526]],[[-44.5446,-23.0485],[-44.5455,-23.0497],[-44.546,-23.0496],[-44.5462,-23.0492],[-44.5456,-23.0477],[-44.5447,-23.0472],[-44.5442,-23.0471],[-44.5446,-23.0485]],[[-44.6295,-22.9171],[-44.6211,-22.9388],[-44.6099,-22.939],[-44.6052,-22.9431],[-44.5942,-22.9472],[-44.5763,-22.9469],[-44.5614,-22.9544],[-44.5571,-22.9625],[-44.5595,-22.9715],[-44.5547,-22.974],[-44.5498,-22.9723],[-44.5425,-22.986],[-44.5447,-22.9915],[-44.541,-22.9982],[-44.5452,-23.0059],[-44.5491,-23.0059],[-44.5485,-23.009],[-44.5438,-23.0083],[-44.5464,-23.0201],[-44.5371,-23.0243],[-44.5306,-23.0208],[-44.5191,-23.0273],[-44.5294,-23.0276],[-44.5503,-23.0375],[-44.5599,-23.0386],[-44.5681,-23.0471],[-44.5757,-23.048],[-44.5775,-23.054],[-44.5854,-23.0567],[-44.5834,-23.0581],[-44.5991,-23.0632],[-44.5905,-23.0524],[-44.5912,-23.0491],[-44.5962,-23.0454],[-44.6082,-23.0497],[-44.6113,-23.0481],[-44.614,-23.0515],[-44.6137,-23.0457],[-44.6176,-23.0434],[-44.638,-23.0525],[-44.6385,-23.0482],[-44.6452,-23.0466],[-44.6505,-23.0563],[-44.6564,-23.0519],[-44.6609,-23.0565],[-44.6678,-23.0536],[-44.6779,-23.0634],[-44.6761,-23.0706],[-44.6833,-23.071],[-44.6876,-23.0773],[-44.6848,-23.0794],[-44.691,-23.0835],[-44.6873,-23.0905],[-44.6927,-23.0932],[-44.6959,-23.1023],[-44.6983,-23.1215],[-44.6878,-23.1268],[-44.6918,-23.1312],[-44.6987,-23.1316],[-44.6988,-23.1354],[-44.6979,-23.1431],[-44.6928,-23.1462],[-44.6986,-23.1552],[-44.7051,-23.1559],[-44.7069,-23.1666],[-44.6985,-23.1687],[-44.6981,-23.1741],[-44.7101,-23.1766],[-44.7118,-23.1826],[-44.717,-23.1848],[-44.7146,-23.1873],[-44.7064,-23.1857],[-44.7146,-23.1899],[-44.7138,-23.1939],[-44.7179,-23.1936],[-44.7212,-23.2016],[-44.7137,-23.2114],[-44.7105,-23.2111],[-44.7078,-23.2198],[-44.7124,-23.2216],[-44.7091,-23.2255],[-44.7122,-23.2333],[-44.7051,-23.2336],[-44.7001,-23.2325],[-44.6947,-23.2319],[-44.6898,-23.2219],[-44.684,-23.2234],[-44.6758,-23.2184],[-44.673,-23.2146],[-44.6772,-23.2122],[-44.6711,-23.2106],[-44.6687,-23.2056],[-44.666,-23.2092],[-44.6634,-23.206],[-44.6586,-23.2071],[-44.651,-23.1877],[-44.6428,-23.1853],[-44.6437,-23.1957],[-44.6262,-23.1963],[-44.6263,-23.202],[-44.6162,-23.2034],[-44.6157,-23.2062],[-44.6224,-23.2074],[-44.6266,-23.2128],[-44.6241,-23.2211],[-44.628,-23.224],[-44.6328,-23.2222],[-44.6339,-23.2172],[-44.6406,-23.2188],[-44.6363,-23.2107],[-44.651,-23.2217],[-44.6527,-23.2172],[-44.6625,-23.2142],[-44.6588,-23.2218],[-44.6637,-23.2278],[-44.6573,-23.2239],[-44.6549,-23.2272],[-44.6664,-23.2349],[-44.6726,-23.2306],[-44.6783,-23.2382],[-44.6722,-23.2401],[-44.677,-23.2424],[-44.6814,-23.2397],[-44.6841,-23.2422],[-44.679,-23.2466],[-44.6923,-23.2528],[-44.6788,-23.2523],[-44.669,-23.2443],[-44.6691,-23.2492],[-44.6633,-23.2479],[-44.6583,-23.2392],[-44.6509,-23.2352],[-44.6377,-23.2352],[-44.6333,-23.2398],[-44.6293,-23.2389],[-44.6132,-23.2341],[-44.6242,-23.2446],[-44.6411,-23.2765],[-44.6569,-23.2926],[-44.6554,-23.2953],[-44.6393,-23.3008],[-44.6435,-23.2958],[-44.6455,-23.2904],[-44.6413,-23.2873],[-44.6377,-23.2899],[-44.6312,-23.283],[-44.6203,-23.2585],[-44.5966,-23.2439],[-44.5987,-23.2372],[-44.5963,-23.2347],[-44.5741,-23.2338],[-44.5599,-23.2271],[-44.5606,-23.2319],[-44.5758,-23.2447],[-44.5749,-23.2535],[-44.5838,-23.2664],[-44.5794,-23.2711],[-44.5753,-23.269],[-44.5591,-23.2737],[-44.551,-23.2713],[-44.5489,-23.2746],[-44.5368,-23.2674],[-44.5184,-23.2806],[-44.52,-23.2846],[-44.5149,-23.2862],[-44.5122,-23.2921],[-44.505,-23.2914],[-44.5024,-23.2964],[-44.5094,-23.3014],[-44.5134,-23.2925],[-44.5288,-23.2881],[-44.5353,-23.2928],[-44.5405,-23.3055],[-44.5424,-23.3028],[-44.5511,-23.308],[-44.5562,-23.3053],[-44.5655,-23.3237],[-44.5615,-23.3305],[-44.5851,-23.3594],[-44.5911,-23.3622],[-44.5991,-23.3594],[-44.6049,-23.3674],[-44.608,-23.3638],[-44.6066,-23.3492],[-44.6128,-23.3481],[-44.6177,-23.3515],[-44.6189,-23.3425],[-44.6237,-23.3408],[-44.6285,-23.3501],[-44.6338,-23.3527],[-44.6293,-23.3386],[-44.6404,-23.3327],[-44.6476,-23.335],[-44.652,-23.3423],[-44.6619,-23.3395],[-44.6596,-23.3479],[-44.6721,-23.3454],[-44.6757,-23.3356],[-44.6814,-23.34],[-44.6813,-23.3475],[-44.6866,-23.3523],[-44.6867,-23.348],[-44.7017,-23.3408],[-44.718,-23.3472],[-44.722,-23.3533],[-44.7192,-23.354],[-44.7212,-23.3576],[-44.7268,-23.3544],[-44.7312,-23.3593],[-44.7239,-23.3677],[-44.7374,-23.3627],[-44.7424,-23.358],[-44.7497,-23.358],[-44.7533,-23.3522],[-44.7597,-23.342],[-44.7779,-23.3385],[-44.7763,-23.3333],[-44.7816,-23.3259],[-44.7795,-23.3226],[-44.7801,-23.3153],[-44.7876,-23.3053],[-44.7863,-23.2995],[-44.797,-23.2939],[-44.8049,-23.2896],[-44.807,-23.2829],[-44.8263,-23.2915],[-44.8236,-23.2804],[-44.83,-23.2693],[-44.8397,-23.2633],[-44.8362,-23.2564],[-44.8431,-23.2553],[-44.8539,-23.2485],[-44.8746,-23.2487],[-44.8778,-23.2323],[-44.8848,-23.2325],[-44.8885,-23.224],[-44.881,-23.2155],[-44.8822,-23.2022],[-44.8759,-23.1974],[-44.875,-23.1919],[-44.8723,-23.1826],[-44.8603,-23.181],[-44.8529,-23.1763],[-44.8538,-23.1723],[-44.8458,-23.1726],[-44.8448,-23.1685],[-44.8398,-23.1665],[-44.8398,-23.1665],[-44.8253,-23.1626],[-44.8227,-23.1579],[-44.825,-23.1432],[-44.8164,-23.1403],[-44.8194,-23.1327],[-44.8107,-23.1252],[-44.8132,-23.1211],[-44.8108,-23.1146],[-44.8158,-23.1097],[-44.8086,-23.0992],[-44.8124,-23.098],[-44.8119,-23.0916],[-44.8183,-23.0896],[-44.8145,-23.0805],[-44.8114,-23.07],[-44.8136,-23.0671],[-44.8069,-23.0616],[-44.8111,-23.054],[-44.8088,-23.0517],[-44.8028,-23.0499],[-44.8012,-23.0309],[-44.7961,-23.0242],[-44.7967,-23.023],[-44.7967,-23.0229],[-44.7982,-23.0197],[-44.7927,-23.0098],[-44.8022,-22.9987],[-44.7929,-22.9932],[-44.7926,-22.9898],[-44.792,-22.9817],[-44.7867,-22.9823],[-44.7831,-22.9788],[-44.7753,-22.9782],[-44.7649,-22.9829],[-44.759,-22.9784],[-44.7549,-22.9798],[-44.7562,-22.9754],[-44.7489,-22.9697],[-44.752,-22.9622],[-44.7431,-22.947],[-44.7431,-22.947],[-44.7426,-22.9469],[-44.7205,-22.9354],[-44.7132,-22.9297],[-44.7029,-22.9357],[-44.6957,-22.9318],[-44.6878,-22.936],[-44.6735,-22.9178],[-44.6589,-22.9272],[-44.638,-22.9139],[-44.6295,-22.9171]]]}},{"type":"Feature","properties":{"canonico":"QUISSAMA","nome":"Quissamã","uf":"RJ","planeja":true},"geometry":{"type":"Polygon","coordinates":[[[-41.4401,-21.9822],[-41.3487,-22.0286],[-41.3093,-22.0486],[-41.277,-22.0649],[-41.2567,-22.0992],[-41.24,-22.0987],[-41.2297,-22.0949],[-41.2228,-22.0971],[-41.2076,-22.0961],[-41.2012,-22.1035],[-41.1989,-22.1013],[-41.1954,-22.1043],[-41.1912,-22.1031],[-41.193,-22.0969],[-41.1897,-22.1009],[-41.1892,-22.0986],[-41.1793,-22.0987],[-41.1765,-22.0952],[-41.1603,-22.1017],[-41.159,-22.0935],[-41.1518,-22.0945],[-41.1519,-22.0985],[-41.1487,-22.0953],[-41.1454,-22.0983],[-41.1413,-22.0947],[-41.1455,-22.0894],[-41.132,-22.0899],[-41.1306,-22.0905],[-41.1576,-22.1096],[-41.2033,-22.1317],[-41.242,-22.1467],[-41.2945,-22.1616],[-41.4218,-22.1943],[-41.425,-22.1949],[-41.4609,-22.2051],[-41.4673,-22.2071],[-41.4827,-22.2116],[-41.4988,-22.2168],[-41.538,-22.2326],[-41.5342,-22.2287],[-41.5483,-22.2261],[-41.5497,-22.2118],[-41.5529,-22.2014],[-41.5492,-22.2001],[-41.5387,-22.1958],[-41.5388,-22.1899],[-41.5433,-22.1866],[-41.5472,-22.1789],[-41.5523,-22.1643],[-41.5571,-22.1553],[-41.5744,-22.1388],[-41.5916,-22.1342],[-41.5923,-22.1342],[-41.6152,-22.1283],[-41.6381,-22.1225],[-41.6928,-22.1086],[-41.675,-22.0762],[-41.6671,-22.068],[-41.6631,-22.0683],[-41.6618,-22.0587],[-41.6576,-22.0573],[-41.6525,-22.058],[-41.6447,-22.052],[-41.6215,-22.0502],[-41.6164,-22.0463],[-41.6012,-22.0511],[-41.5902,-22.0472],[-41.5584,-22.0538],[-41.5425,-22.0529],[-41.5322,-22.0363],[-41.5168,-22.0156],[-41.5002,-22.009],[-41.4795,-21.9986],[-41.4748,-22.0027],[-41.4709,-22.0011],[-41.4662,-21.9858],[-41.4527,-21.9823],[-41.4516,-21.9746],[-41.4491,-21.9733],[-41.4401,-21.9822]]]}},{"type":"Feature","properties":{"canonico":"RIO DAS OSTRAS","nome":"Rio das Ostras","uf":"RJ","planeja":true},"geometry":{"type":"Polygon","coordinates":[[[-41.9373,-22.3774],[-41.941,-22.3921],[-41.9068,-22.3994],[-41.8931,-22.412],[-41.8765,-22.4186],[-41.8734,-22.4176],[-41.8717,-22.4185],[-41.8663,-22.4203],[-41.8607,-22.4178],[-41.854,-22.4079],[-41.8473,-22.4103],[-41.8254,-22.409],[-41.8174,-22.4163],[-41.8411,-22.4349],[-41.852,-22.4461],[-41.858,-22.4586],[-41.8618,-22.4771],[-41.8683,-22.4781],[-41.8783,-22.4876],[-41.891,-22.4867],[-41.8993,-22.4943],[-41.9169,-22.5167],[-41.92,-22.5264],[-41.9324,-22.5376],[-41.9374,-22.5367],[-41.9436,-22.5279],[-41.957,-22.5318],[-41.9691,-22.5429],[-41.9791,-22.5621],[-41.9867,-22.5462],[-41.9873,-22.5403],[-41.9898,-22.5142],[-41.9901,-22.5074],[-41.9896,-22.5065],[-41.9915,-22.5029],[-42.0057,-22.4855],[-42.0157,-22.4838],[-42.0272,-22.4685],[-42.0291,-22.4555],[-42.0193,-22.4492],[-42.02,-22.4444],[-42.0206,-22.4435],[-42.0197,-22.43],[-42.0153,-22.4252],[-42.0365,-22.4318],[-42.0368,-22.4276],[-42.0475,-22.4238],[-42.0645,-22.4225],[-42.0466,-22.4033],[-42.0242,-22.3886],[-42.018,-22.3909],[-42.0085,-22.395],[-42.0077,-22.3954],[-42.001,-22.3983],[-41.9896,-22.3976],[-41.965,-22.3874],[-41.953,-22.3881],[-41.9509,-22.3928],[-41.9454,-22.3922],[-41.9424,-22.3787],[-41.9373,-22.3774]]]}},{"type":"Feature","properties":{"canonico":"SAO FRANCISCO DE ITABAPOANA","nome":"São Francisco de Itabapoana","uf":"RJ","planeja":true},"geometry":{"type":"Polygon","coordinates":[[[-41.228,-21.2255],[-41.2272,-21.2305],[-41.2239,-21.2268],[-41.2245,-21.2302],[-41.2203,-21.2295],[-41.2213,-21.2329],[-41.2118,-21.2354],[-41.2049,-21.2434],[-41.2037,-21.2394],[-41.1992,-21.2437],[-41.1932,-21.2438],[-41.1926,-21.2413],[-41.1905,-21.248],[-41.1878,-21.243],[-41.1831,-21.244],[-41.1858,-21.2409],[-41.1825,-21.2358],[-41.1808,-21.2394],[-41.1775,-21.2387],[-41.1806,-21.2414],[-41.1741,-21.2406],[-41.1764,-21.2444],[-41.1636,-21.2427],[-41.1606,-21.2455],[-41.1578,-21.2407],[-41.1555,-21.2446],[-41.1558,-21.2397],[-41.141,-21.2382],[-41.1371,-21.2275],[-41.134,-21.2262],[-41.1188,-21.2299],[-41.1039,-21.2193],[-41.1023,-21.2217],[-41.092,-21.2182],[-41.0907,-21.2212],[-41.0882,-21.2199],[-41.081,-21.2215],[-41.0729,-21.2305],[-41.0702,-21.2282],[-41.0555,-21.2377],[-41.041,-21.2547],[-41.0248,-21.2458],[-41.0119,-21.2506],[-41.0063,-21.2516],[-40.9981,-21.2657],[-40.9989,-21.278],[-40.9943,-21.2858],[-40.9852,-21.2865],[-40.9776,-21.2806],[-40.9761,-21.2865],[-40.9803,-21.2883],[-40.9753,-21.2886],[-40.9724,-21.2936],[-40.9655,-21.2952],[-40.9651,-21.2992],[-40.9564,-21.3034],[-40.9602,-21.3177],[-40.9644,-21.3437],[-40.9602,-21.361],[-40.9648,-21.3631],[-40.9823,-21.3934],[-40.9872,-21.3913],[-40.9972,-21.3983],[-41.0064,-21.4199],[-41.0232,-21.4449],[-41.0372,-21.4611],[-41.0475,-21.4668],[-41.064,-21.4869],[-41.0703,-21.499],[-41.0743,-21.5218],[-41.0708,-21.5444],[-41.0566,-21.5842],[-41.0377,-21.6028],[-41.0197,-21.6042],[-41.013,-21.6083],[-41.0141,-21.6048],[-41.01,-21.6115],[-41.0291,-21.6167],[-41.0527,-21.6175],[-41.075,-21.6308],[-41.0945,-21.6528],[-41.101,-21.6621],[-41.1035,-21.6733],[-41.1114,-21.6767],[-41.1266,-21.6733],[-41.1357,-21.6773],[-41.1407,-21.6768],[-41.1388,-21.6715],[-41.148,-21.6714],[-41.1461,-21.6755],[-41.1591,-21.6745],[-41.1643,-21.6809],[-41.178,-21.688],[-41.1879,-21.6866],[-41.1888,-21.6821],[-41.1965,-21.6819],[-41.1909,-21.6602],[-41.1825,-21.6214],[-41.1813,-21.5977],[-41.1875,-21.59],[-41.1941,-21.5905],[-41.2174,-21.5802],[-41.2328,-21.564],[-41.2641,-21.5517],[-41.2447,-21.522],[-41.2436,-21.5203],[-41.2292,-21.4993],[-41.2486,-21.5004],[-41.2595,-21.4905],[-41.2613,-21.4889],[-41.2573,-21.4856],[-41.255,-21.4756],[-41.2584,-21.4656],[-41.2551,-21.4437],[-41.2577,-21.4212],[-41.2661,-21.4066],[-41.2566,-21.3948],[-41.2567,-21.388],[-41.2428,-21.3874],[-41.2371,-21.3813],[-41.2369,-21.3745],[-41.2429,-21.3659],[-41.2553,-21.3621],[-41.2638,-21.3635],[-41.2652,-21.3554],[-41.2704,-21.3535],[-41.2629,-21.3401],[-41.2578,-21.3395],[-41.2586,-21.3318],[-41.2632,-21.3322],[-41.2499,-21.32],[-41.2487,-21.3089],[-41.2619,-21.3142],[-41.2766,-21.3116],[-41.2957,-21.3158],[-41.2989,-21.3107],[-41.3068,-21.3133],[-41.3124,-21.3115],[-41.3097,-21.3016],[-41.3023,-21.2975],[-41.2987,-21.2861],[-41.2887,-21.2712],[-41.2875,-21.2564],[-41.2808,-21.2493],[-41.2721,-21.2461],[-41.2767,-21.2398],[-41.2754,-21.2359],[-41.2714,-21.2368],[-41.2719,-21.2329],[-41.2653,-21.2326],[-41.2617,-21.2363],[-41.2569,-21.2253],[-41.2493,-21.2217],[-41.2465,-21.2207],[-41.2409,-21.2207],[-41.228,-21.2255]]]}},{"type":"Feature","properties":{"canonico":"SAO JOAO DA BARRA","nome":"São João da Barra","uf":"RJ","planeja":true},"geometry":{"type":"Polygon","coordinates":[[[-41.01,-21.6115],[-41.0162,-21.6469],[-41.0236,-21.6802],[-41.0257,-21.7206],[-41.0088,-21.7971],[-40.9797,-21.9151],[-40.9822,-21.915],[-41.0017,-21.9146],[-41.0315,-21.9139],[-41.0321,-21.9139],[-41.0524,-21.9135],[-41.0526,-21.9135],[-41.077,-21.9129],[-41.0841,-21.9128],[-41.1274,-21.9118],[-41.1401,-21.8943],[-41.1535,-21.8823],[-41.1588,-21.8707],[-41.1591,-21.8652],[-41.1534,-21.8599],[-41.1511,-21.8381],[-41.1495,-21.8162],[-41.1501,-21.8151],[-41.1544,-21.8077],[-41.1674,-21.7886],[-41.1772,-21.7752],[-41.1717,-21.7489],[-41.177,-21.7434],[-41.1917,-21.7306],[-41.1916,-21.7262],[-41.1761,-21.7176],[-41.1715,-21.7109],[-41.164,-21.7088],[-41.1519,-21.6968],[-41.1442,-21.6936],[-41.1357,-21.6773],[-41.1266,-21.6733],[-41.1114,-21.6767],[-41.1035,-21.6733],[-41.101,-21.6621],[-41.0945,-21.6528],[-41.075,-21.6308],[-41.0527,-21.6175],[-41.0291,-21.6167],[-41.01,-21.6115]]]}},{"type":"Feature","properties":{"canonico":"SAQUAREMA","nome":"Saquarema","uf":"RJ","planeja":true},"geometry":{"type":"Polygon","coordinates":[[[-42.5597,-22.8112],[-42.5469,-22.8136],[-42.5333,-22.8093],[-42.5288,-22.8143],[-42.5276,-22.8159],[-42.5226,-22.8237],[-42.488,-22.8275],[-42.4845,-22.8304],[-42.4785,-22.8229],[-42.4544,-22.823],[-42.4484,-22.823],[-42.4271,-22.8263],[-42.4129,-22.8286],[-42.3702,-22.8352],[-42.3727,-22.8446],[-42.3831,-22.8837],[-42.3857,-22.888],[-42.3873,-22.8955],[-42.378,-22.9081],[-42.3669,-22.9355],[-42.4552,-22.9353],[-42.4762,-22.9386],[-42.5102,-22.9338],[-42.5856,-22.9332],[-42.6359,-22.9371],[-42.642,-22.9098],[-42.6556,-22.9038],[-42.6701,-22.9103],[-42.6804,-22.9095],[-42.6758,-22.9038],[-42.6767,-22.8975],[-42.6788,-22.8784],[-42.6716,-22.8701],[-42.6608,-22.8586],[-42.6462,-22.8546],[-42.6345,-22.8463],[-42.6356,-22.8379],[-42.6024,-22.8188],[-42.6008,-22.8162],[-42.596,-22.8137],[-42.5915,-22.8112],[-42.5813,-22.805],[-42.5681,-22.8035],[-42.5597,-22.8112]]]}},{"type":"Feature","properties":{"canonico":"ITAPEMIRIM","nome":"Itapemirim","uf":"ES","planeja":true},"geometry":{"type":"Polygon","coordinates":[[[-40.8723,-20.8919],[-40.8654,-20.8929],[-40.851,-20.886],[-40.828,-20.8904],[-40.8279,-20.8905],[-40.7811,-20.8726],[-40.7775,-20.8713],[-40.7752,-20.8704],[-40.7586,-20.8641],[-40.7618,-20.8762],[-40.7584,-20.8791],[-40.7647,-20.8891],[-40.7723,-20.8915],[-40.7761,-20.9047],[-40.7953,-20.9258],[-40.8038,-20.9432],[-40.8098,-20.9669],[-40.8103,-20.9945],[-40.8279,-21.018],[-40.8479,-21.0446],[-40.849,-21.0455],[-40.8744,-21.0579],[-40.8834,-21.0525],[-40.892,-21.0536],[-40.9016,-21.0485],[-40.9107,-21.0387],[-40.9183,-21.0452],[-40.9292,-21.0474],[-40.939,-21.0585],[-40.9336,-21.0648],[-40.9352,-21.0703],[-40.9337,-21.082],[-40.9461,-21.1137],[-40.9595,-21.0771],[-40.9717,-21.0767],[-40.9764,-21.0722],[-40.9823,-21.0669],[-40.9839,-21.0603],[-40.9933,-21.0566],[-41.0001,-21.0646],[-41.0181,-21.0629],[-41.0247,-21.0561],[-41.0235,-21.0504],[-41.0335,-21.0508],[-41.0406,-21.0448],[-41.0439,-21.0456],[-41.0417,-21.0421],[-41.0369,-21.0357],[-41.0433,-21.0182],[-41.0528,-21.0249],[-41.0635,-21.0265],[-41.0688,-21.0232],[-41.0777,-21.0238],[-41.092,-21.0176],[-41.0931,-21.0143],[-41.0975,-21.0112],[-41.1018,-21.0134],[-41.1002,-21.0054],[-41.1111,-20.9935],[-41.1082,-20.9827],[-41.1025,-20.9789],[-41.1074,-20.9736],[-41.112,-20.9753],[-41.1111,-20.9687],[-41.1191,-20.9665],[-41.1177,-20.9617],[-41.0977,-20.9572],[-41.0908,-20.9523],[-41.0862,-20.9412],[-41.0858,-20.941],[-41.0814,-20.936],[-41.0799,-20.9314],[-41.0784,-20.9259],[-41.0781,-20.9181],[-41.0715,-20.9192],[-41.0643,-20.9061],[-41.0527,-20.9025],[-41.0549,-20.8978],[-41.0575,-20.8924],[-41.0514,-20.8755],[-41.0395,-20.8688],[-41.0295,-20.8689],[-41.0251,-20.8689],[-41.0233,-20.8689],[-40.9908,-20.869],[-40.9797,-20.8689],[-40.9632,-20.8755],[-40.9451,-20.8858],[-40.9253,-20.8911],[-40.901,-20.89],[-40.9001,-20.89],[-40.8723,-20.8919]]]}},{"type":"Feature","properties":{"canonico":"MARATAIZES","nome":"Marataízes","uf":"ES","planeja":true},"geometry":{"type":"Polygon","coordinates":[[[-40.8103,-20.9945],[-40.8054,-21.0041],[-40.8003,-21.0033],[-40.8063,-21.0072],[-40.8104,-21.0209],[-40.813,-21.0356],[-40.8278,-21.0465],[-40.856,-21.1276],[-40.8805,-21.1434],[-40.8908,-21.157],[-40.9077,-21.1673],[-40.9256,-21.1912],[-40.9282,-21.1868],[-40.9375,-21.1854],[-40.9461,-21.1745],[-40.9488,-21.1639],[-40.9497,-21.1305],[-40.9461,-21.1137],[-40.9337,-21.082],[-40.9352,-21.0703],[-40.9336,-21.0648],[-40.939,-21.0585],[-40.9292,-21.0474],[-40.9183,-21.0452],[-40.9107,-21.0387],[-40.9016,-21.0485],[-40.892,-21.0536],[-40.8834,-21.0525],[-40.8744,-21.0579],[-40.849,-21.0455],[-40.8479,-21.0446],[-40.8279,-21.018],[-40.8103,-20.9945]]]}},{"type":"Feature","properties":{"canonico":"PIUMA","nome":"Piúma","uf":"ES","planeja":true},"geometry":{"type":"Polygon","coordinates":[[[-40.7417,-20.8032],[-40.7352,-20.8069],[-40.7296,-20.8055],[-40.7213,-20.818],[-40.7104,-20.8205],[-40.7091,-20.8279],[-40.7071,-20.8309],[-40.7008,-20.8342],[-40.7149,-20.8432],[-40.72,-20.8417],[-40.7196,-20.8366],[-40.7276,-20.836],[-40.7286,-20.8381],[-40.7201,-20.8388],[-40.7231,-20.8419],[-40.719,-20.8464],[-40.7247,-20.8467],[-40.724,-20.8427],[-40.729,-20.8424],[-40.7441,-20.8481],[-40.7488,-20.8534],[-40.7584,-20.8636],[-40.7586,-20.8641],[-40.7752,-20.8704],[-40.7775,-20.8713],[-40.7811,-20.8726],[-40.8279,-20.8905],[-40.828,-20.8904],[-40.8279,-20.8522],[-40.7976,-20.8194],[-40.7696,-20.788],[-40.7509,-20.7874],[-40.7481,-20.7985],[-40.7417,-20.8032]]]}},{"type":"Feature","properties":{"canonico":"PRESIDENTE KENNEDY","nome":"Presidente Kennedy","uf":"ES","planeja":true},"geometry":{"type":"Polygon","coordinates":[[[-41.0975,-21.0112],[-41.0931,-21.0143],[-41.092,-21.0176],[-41.0777,-21.0238],[-41.0688,-21.0232],[-41.0635,-21.0265],[-41.0528,-21.0249],[-41.0433,-21.0182],[-41.0369,-21.0357],[-41.0417,-21.0421],[-41.0439,-21.0456],[-41.0406,-21.0448],[-41.0335,-21.0508],[-41.0235,-21.0504],[-41.0247,-21.0561],[-41.0181,-21.0629],[-41.0001,-21.0646],[-40.9933,-21.0566],[-40.9839,-21.0603],[-40.9823,-21.0669],[-40.9764,-21.0722],[-40.9717,-21.0767],[-40.9595,-21.0771],[-40.9461,-21.1137],[-40.9497,-21.1305],[-40.9488,-21.1639],[-40.9461,-21.1745],[-40.9375,-21.1854],[-40.9282,-21.1868],[-40.9256,-21.1912],[-40.9341,-21.204],[-40.9534,-21.2375],[-40.9602,-21.2574],[-40.9619,-21.2696],[-40.9617,-21.279],[-40.9575,-21.3013],[-40.9651,-21.2992],[-40.9655,-21.2952],[-40.9724,-21.2936],[-40.9753,-21.2886],[-40.9803,-21.2883],[-40.9761,-21.2865],[-40.9776,-21.2806],[-40.9852,-21.2865],[-40.9943,-21.2858],[-40.9989,-21.278],[-40.9981,-21.2657],[-41.0063,-21.2516],[-41.0119,-21.2506],[-41.0248,-21.2458],[-41.041,-21.2547],[-41.0555,-21.2377],[-41.0702,-21.2282],[-41.0729,-21.2305],[-41.081,-21.2215],[-41.0882,-21.2199],[-41.0907,-21.2212],[-41.092,-21.2182],[-41.1023,-21.2217],[-41.1039,-21.2193],[-41.1188,-21.2299],[-41.134,-21.2262],[-41.1371,-21.2275],[-41.1583,-21.2306],[-41.1824,-21.2295],[-41.1875,-21.2195],[-41.1919,-21.194],[-41.1907,-21.1758],[-41.205,-21.1456],[-41.2058,-21.1425],[-41.2228,-21.1115],[-41.2203,-21.0941],[-41.231,-21.0845],[-41.2333,-21.0785],[-41.2291,-21.0735],[-41.2144,-21.0651],[-41.2094,-21.0677],[-41.1939,-21.0612],[-41.1856,-21.0687],[-41.1761,-21.0628],[-41.1591,-21.0598],[-41.1533,-21.0552],[-41.1547,-21.0512],[-41.1488,-21.0495],[-41.153,-21.0452],[-41.1503,-21.0389],[-41.1433,-21.038],[-41.1407,-21.0331],[-41.1314,-21.0297],[-41.1264,-21.0134],[-41.1165,-21.0132],[-41.1132,-21.0151],[-41.1018,-21.0134],[-41.0975,-21.0112]]]}},{"type":"Feature","properties":{"canonico":"CANANEIA","nome":"Cananéia","uf":"SP","planeja":true},"geometry":{"type":"Polygon","coordinates":[[[-47.9997,-25.2478],[-48.0016,-25.2488],[-48.0028,-25.2473],[-48.0009,-25.2457],[-47.9997,-25.2478]],[[-47.8019,-24.7895],[-47.7923,-24.7987],[-47.7813,-24.8011],[-47.7732,-24.816],[-47.779,-24.8286],[-47.7823,-24.8287],[-47.7762,-24.8355],[-47.7776,-24.846],[-47.774,-24.8464],[-47.774,-24.8421],[-47.77,-24.845],[-47.7716,-24.839],[-47.7614,-24.8365],[-47.7644,-24.835],[-47.7628,-24.8326],[-47.7562,-24.8355],[-47.7564,-24.8404],[-47.7496,-24.8411],[-47.7462,-24.8382],[-47.7474,-24.8312],[-47.7375,-24.8297],[-47.7339,-24.8352],[-47.7465,-24.8511],[-47.7643,-24.8584],[-47.7762,-24.8785],[-47.7998,-24.8891],[-47.8029,-24.9047],[-47.8096,-24.9112],[-47.8186,-24.9119],[-47.8302,-24.9049],[-47.8391,-24.9043],[-47.8386,-24.9075],[-47.8273,-24.9115],[-47.8287,-24.9205],[-47.8549,-24.9363],[-47.8525,-24.9393],[-47.8613,-24.9617],[-47.8718,-24.9677],[-47.8849,-24.9628],[-47.8882,-24.9652],[-47.8918,-24.9713],[-47.8906,-24.9801],[-47.8851,-24.9724],[-47.8714,-24.9808],[-47.884,-24.9845],[-47.8814,-24.9858],[-47.8839,-24.9902],[-47.8944,-24.9906],[-47.8999,-25.0041],[-47.9174,-25.0145],[-47.913,-25.0421],[-47.9139,-25.0513],[-47.9095,-25.0529],[-47.9093,-25.0626],[-47.9021,-25.0804],[-47.897,-25.0847],[-47.895,-25.0918],[-47.8979,-25.0968],[-47.8943,-25.1064],[-47.908,-25.1177],[-47.9184,-25.1452],[-47.9187,-25.153],[-47.9119,-25.1567],[-47.912,-25.1629],[-47.9084,-25.167],[-47.9136,-25.167],[-47.9122,-25.1633],[-47.9167,-25.1595],[-47.9267,-25.1621],[-47.9429,-25.1731],[-47.9721,-25.1996],[-48.0286,-25.2423],[-48.099,-25.3118],[-48.098,-25.2992],[-48.0826,-25.2815],[-48.057,-25.2628],[-48.0507,-25.2518],[-48.0231,-25.2304],[-48.0295,-25.2257],[-48.0264,-25.2215],[-48.031,-25.2182],[-48.0431,-25.2201],[-48.0467,-25.2263],[-48.057,-25.2178],[-48.0591,-25.229],[-48.0565,-25.2326],[-48.0616,-25.2396],[-48.0746,-25.2401],[-48.0809,-25.2437],[-48.0834,-25.2401],[-48.0919,-25.2395],[-48.1039,-25.2429],[-48.1144,-25.2502],[-48.1508,-25.2276],[-48.1622,-25.2093],[-48.171,-25.21],[-48.1796,-25.2063],[-48.1923,-25.1936],[-48.1929,-25.1894],[-48.1779,-25.1816],[-48.1672,-25.1674],[-48.1682,-25.1561],[-48.1617,-25.1537],[-48.1564,-25.1442],[-48.1665,-25.1433],[-48.1812,-25.1333],[-48.1944,-25.1078],[-48.204,-25.0992],[-48.2035,-25.0931],[-48.2124,-25.0829],[-48.2097,-25.0798],[-48.2156,-25.0762],[-48.2116,-25.0587],[-48.2151,-25.0421],[-48.2098,-25.0359],[-48.209,-25.0267],[-48.2145,-25.0292],[-48.2311,-25.0203],[-48.2315,-25.0149],[-48.2229,-25.0086],[-48.2324,-25.007],[-48.229,-25.0009],[-48.2334,-25.0002],[-48.2392,-24.9909],[-48.2262,-24.9831],[-48.2306,-24.9783],[-48.2283,-24.9723],[-48.21,-24.9564],[-48.1914,-24.9612],[-48.1799,-24.9701],[-48.1699,-24.9696],[-48.1618,-24.9643],[-48.1463,-24.9749],[-48.1439,-24.9842],[-48.139,-24.9858],[-48.1344,-24.9789],[-48.1236,-24.9809],[-48.1119,-24.9732],[-48.0991,-24.9747],[-48.0955,-24.9698],[-48.0957,-24.9696],[-48.0985,-24.9647],[-48.0962,-24.9601],[-48.09,-24.957],[-48.0804,-24.9581],[-48.0779,-24.9534],[-48.0714,-24.9526],[-48.0618,-24.958],[-48.0568,-24.9555],[-48.0444,-24.9592],[-48.0355,-24.9657],[-48.0285,-24.9582],[-48.0245,-24.9516],[-48.0254,-24.9433],[-48.0457,-24.9277],[-48.046,-24.9212],[-48.0418,-24.9182],[-48.0351,-24.9162],[-48.0375,-24.8956],[-48.0348,-24.8914],[-48.0435,-24.884],[-48.0411,-24.8709],[-48.0433,-24.8591],[-48.0477,-24.8568],[-48.0487,-24.8515],[-48.0573,-24.848],[-48.0514,-24.8348],[-48.0443,-24.8348],[-48.0351,-24.8356],[-48.0327,-24.8413],[-48.012,-24.8529],[-48.0065,-24.8498],[-48.003,-24.8529],[-47.9996,-24.8482],[-47.9911,-24.8461],[-47.9826,-24.8657],[-47.9592,-24.8782],[-47.9552,-24.8763],[-47.9628,-24.8597],[-47.9576,-24.8546],[-47.9544,-24.8355],[-47.9482,-24.8348],[-47.9403,-24.844],[-47.9222,-24.8494],[-47.923,-24.8552],[-47.9163,-24.8561],[-47.9132,-24.8368],[-47.9222,-24.8315],[-47.9381,-24.8103],[-47.9254,-24.7946],[-47.9304,-24.7886],[-47.9267,-24.7802],[-47.9449,-24.7715],[-47.9426,-24.7667],[-47.9167,-24.7767],[-47.9059,-24.7724],[-47.9001,-24.7763],[-47.8918,-24.7749],[-47.8876,-24.7869],[-47.8875,-24.7868],[-47.8652,-24.7989],[-47.8642,-24.7927],[-47.8463,-24.7838],[-47.8529,-24.7678],[-47.8298,-24.7559],[-47.8286,-24.7668],[-47.8095,-24.7893],[-47.8019,-24.7895]]]}},{"type":"Feature","properties":{"canonico":"CARAGUATATUBA","nome":"Caraguatatuba","uf":"SP","planeja":true},"geometry":{"type":"Polygon","coordinates":[[[-45.2808,-23.5931],[-45.2829,-23.6014],[-45.2955,-23.602],[-45.2923,-23.5933],[-45.2808,-23.5931]],[[-45.3075,-23.5872],[-45.3077,-23.588],[-45.3104,-23.5872],[-45.3106,-23.5853],[-45.3075,-23.5872]],[[-45.3099,-23.5831],[-45.3121,-23.5847],[-45.3129,-23.5819],[-45.3106,-23.581],[-45.3099,-23.5831]],[[-45.2786,-23.5213],[-45.2796,-23.5408],[-45.2654,-23.5441],[-45.2621,-23.5525],[-45.2643,-23.5573],[-45.2589,-23.5604],[-45.2631,-23.5641],[-45.2714,-23.5595],[-45.2717,-23.5721],[-45.2758,-23.5751],[-45.274,-23.5781],[-45.2773,-23.5778],[-45.2812,-23.573],[-45.2931,-23.5751],[-45.2969,-23.5716],[-45.3069,-23.5745],[-45.3066,-23.5752],[-45.3071,-23.5757],[-45.3084,-23.5753],[-45.3085,-23.575],[-45.319,-23.5781],[-45.3363,-23.5917],[-45.3548,-23.618],[-45.358,-23.6244],[-45.3703,-23.6299],[-45.3746,-23.6263],[-45.3777,-23.6237],[-45.3872,-23.6316],[-45.3896,-23.6335],[-45.3963,-23.6294],[-45.3986,-23.6234],[-45.4061,-23.6229],[-45.4184,-23.6354],[-45.4298,-23.6554],[-45.4323,-23.6837],[-45.4265,-23.708],[-45.4274,-23.7117],[-45.434,-23.7136],[-45.445,-23.724],[-45.4554,-23.7282],[-45.4585,-23.733],[-45.4574,-23.7416],[-45.4574,-23.7418],[-45.4573,-23.7425],[-45.4769,-23.7594],[-45.4719,-23.7508],[-45.478,-23.7359],[-45.4854,-23.7332],[-45.483,-23.7237],[-45.4891,-23.7249],[-45.4946,-23.7254],[-45.503,-23.729],[-45.5057,-23.7274],[-45.5115,-23.7344],[-45.5148,-23.7366],[-45.5306,-23.7555],[-45.5359,-23.7543],[-45.5439,-23.7482],[-45.5325,-23.7383],[-45.55,-23.7436],[-45.5647,-23.7433],[-45.5682,-23.731],[-45.5743,-23.7297],[-45.5722,-23.7255],[-45.5851,-23.7295],[-45.5932,-23.7234],[-45.6023,-23.7276],[-45.6175,-23.7189],[-45.6384,-23.7209],[-45.6491,-23.726],[-45.6635,-23.7213],[-45.6716,-23.7255],[-45.6752,-23.7221],[-45.6858,-23.7203],[-45.6904,-23.723],[-45.6902,-23.7206],[-45.6944,-23.7203],[-45.6907,-23.7139],[-45.678,-23.7109],[-45.6636,-23.7018],[-45.6723,-23.69],[-45.6671,-23.6859],[-45.6685,-23.6788],[-45.6791,-23.6722],[-45.6794,-23.6651],[-45.703,-23.6613],[-45.7038,-23.6585],[-45.7081,-23.6603],[-45.7092,-23.6552],[-45.7152,-23.6544],[-45.7192,-23.6484],[-45.7113,-23.6417],[-45.7071,-23.6443],[-45.7021,-23.6364],[-45.6917,-23.6365],[-45.6791,-23.627],[-45.6752,-23.6307],[-45.6691,-23.6288],[-45.6666,-23.6199],[-45.6564,-23.6253],[-45.6361,-23.6216],[-45.6353,-23.6248],[-45.6214,-23.6293],[-45.6262,-23.641],[-45.6325,-23.6447],[-45.6314,-23.6567],[-45.618,-23.6516],[-45.6025,-23.6536],[-45.5868,-23.6454],[-45.5804,-23.6463],[-45.5531,-23.6138],[-45.552,-23.6067],[-45.5405,-23.5962],[-45.5306,-23.6015],[-45.526,-23.6005],[-45.5241,-23.6043],[-45.4871,-23.572],[-45.4831,-23.5753],[-45.4762,-23.5728],[-45.4702,-23.5819],[-45.4676,-23.5784],[-45.4568,-23.5766],[-45.4525,-23.5746],[-45.4504,-23.5691],[-45.4454,-23.5681],[-45.4455,-23.5596],[-45.4393,-23.5526],[-45.4304,-23.5524],[-45.424,-23.5479],[-45.4209,-23.5565],[-45.4125,-23.5596],[-45.3851,-23.5552],[-45.3717,-23.5476],[-45.3707,-23.5417],[-45.3636,-23.5442],[-45.3552,-23.5394],[-45.3493,-23.5473],[-45.3418,-23.5476],[-45.3418,-23.538],[-45.3331,-23.5295],[-45.3274,-23.5311],[-45.3245,-23.5287],[-45.3231,-23.5226],[-45.3181,-23.5196],[-45.3157,-23.5063],[-45.3082,-23.5041],[-45.3085,-23.4968],[-45.2879,-23.4846],[-45.273,-23.4826],[-45.2752,-23.4856],[-45.2702,-23.4972],[-45.2801,-23.5044],[-45.2727,-23.512],[-45.2786,-23.5213]]]}},{"type":"Feature","properties":{"canonico":"IGUAPE","nome":"Iguape","uf":"SP","planeja":true},"geometry":{"type":"Polygon","coordinates":[[[-47.3117,-24.3449],[-47.3064,-24.3511],[-47.3123,-24.3512],[-47.3084,-24.3569],[-47.301,-24.3583],[-47.2828,-24.359],[-47.2757,-24.3555],[-47.247,-24.3613],[-47.2474,-24.3729],[-47.2368,-24.3725],[-47.2339,-24.376],[-47.2214,-24.374],[-47.2171,-24.3694],[-47.2087,-24.3708],[-47.1985,-24.3678],[-47.1937,-24.3622],[-47.1873,-24.3657],[-47.1852,-24.3738],[-47.1802,-24.3746],[-47.1734,-24.3642],[-47.1549,-24.3669],[-47.1469,-24.3575],[-47.1473,-24.3632],[-47.1435,-24.3643],[-47.1343,-24.3667],[-47.1204,-24.3646],[-47.1144,-24.3712],[-47.1164,-24.3771],[-47.1116,-24.3876],[-47.099,-24.3907],[-47.112,-24.3995],[-47.1164,-24.418],[-47.1028,-24.4328],[-47.093,-24.4355],[-47.0865,-24.4307],[-47.0859,-24.4304],[-47.0781,-24.4426],[-47.0915,-24.4566],[-47.1375,-24.4858],[-47.1779,-24.5171],[-47.1864,-24.5242],[-47.1869,-24.5331],[-47.2006,-24.5381],[-47.2281,-24.5586],[-47.2246,-24.5649],[-47.2275,-24.5706],[-47.2503,-24.5753],[-47.3014,-24.6058],[-47.3571,-24.6397],[-47.3967,-24.6623],[-47.4032,-24.6619],[-47.4012,-24.6675],[-47.4321,-24.6841],[-47.4366,-24.6743],[-47.448,-24.6882],[-47.4784,-24.7053],[-47.5117,-24.7006],[-47.5406,-24.706],[-47.5491,-24.7195],[-47.5597,-24.7272],[-47.582,-24.7381],[-47.5896,-24.7463],[-47.6279,-24.7631],[-47.6656,-24.7921],[-47.6854,-24.8136],[-47.714,-24.8298],[-47.7339,-24.8352],[-47.7375,-24.8297],[-47.7474,-24.8312],[-47.7462,-24.8382],[-47.7496,-24.8411],[-47.7564,-24.8404],[-47.7562,-24.8355],[-47.7628,-24.8326],[-47.7644,-24.835],[-47.7614,-24.8365],[-47.7716,-24.839],[-47.77,-24.845],[-47.774,-24.8421],[-47.774,-24.8464],[-47.7776,-24.846],[-47.7762,-24.8355],[-47.7823,-24.8287],[-47.779,-24.8286],[-47.7732,-24.816],[-47.7813,-24.8011],[-47.7923,-24.7987],[-47.8019,-24.7895],[-47.8095,-24.7893],[-47.8286,-24.7668],[-47.8298,-24.7559],[-47.8159,-24.7672],[-47.8059,-24.7668],[-47.8044,-24.7604],[-47.7927,-24.727],[-47.781,-24.7155],[-47.7724,-24.7162],[-47.7728,-24.7117],[-47.7688,-24.7102],[-47.7659,-24.707],[-47.7722,-24.6994],[-47.7682,-24.6942],[-47.7652,-24.6902],[-47.7685,-24.6816],[-47.7633,-24.6726],[-47.7576,-24.665],[-47.749,-24.6616],[-47.7455,-24.6521],[-47.7465,-24.641],[-47.7432,-24.6355],[-47.7362,-24.6329],[-47.7273,-24.6216],[-47.713,-24.615],[-47.7124,-24.6048],[-47.7084,-24.6007],[-47.694,-24.6027],[-47.6918,-24.5841],[-47.6849,-24.5751],[-47.6882,-24.5634],[-47.6841,-24.5498],[-47.6434,-24.5225],[-47.638,-24.5171],[-47.6272,-24.5148],[-47.632,-24.4997],[-47.645,-24.493],[-47.6416,-24.4683],[-47.639,-24.4613],[-47.6418,-24.4523],[-47.6539,-24.4279],[-47.6602,-24.4241],[-47.6832,-24.3786],[-47.6758,-24.3771],[-47.67,-24.3801],[-47.6465,-24.378],[-47.6213,-24.3675],[-47.5992,-24.3743],[-47.5881,-24.3716],[-47.5872,-24.3688],[-47.5777,-24.3667],[-47.5725,-24.369],[-47.5606,-24.3652],[-47.5573,-24.3677],[-47.5509,-24.3695],[-47.5433,-24.359],[-47.5369,-24.3569],[-47.5265,-24.3635],[-47.5043,-24.3665],[-47.5075,-24.3737],[-47.5053,-24.376],[-47.4829,-24.3677],[-47.4716,-24.3682],[-47.4624,-24.3729],[-47.4627,-24.3769],[-47.4651,-24.3793],[-47.4559,-24.3836],[-47.4513,-24.3834],[-47.4503,-24.3877],[-47.4399,-24.3885],[-47.4345,-24.3865],[-47.426,-24.3751],[-47.4149,-24.3744],[-47.3978,-24.3849],[-47.3791,-24.3854],[-47.3662,-24.3843],[-47.3587,-24.3744],[-47.3594,-24.3703],[-47.3492,-24.3695],[-47.3398,-24.3643],[-47.3374,-24.3515],[-47.3239,-24.3466],[-47.319,-24.339],[-47.3143,-24.3364],[-47.3039,-24.3413],[-47.3117,-24.3449]]]}},{"type":"Feature","properties":{"canonico":"ILHABELA","nome":"Ilhabela","uf":"SP","planeja":true},"geometry":{"type":"Polygon","coordinates":[[[-45.2951,-23.9174],[-45.2937,-23.9196],[-45.2974,-23.9192],[-45.2976,-23.9173],[-45.2951,-23.9174]],[[-45.3234,-23.9165],[-45.3225,-23.9184],[-45.3252,-23.9182],[-45.3255,-23.9164],[-45.3234,-23.9165]],[[-45.2599,-23.8884],[-45.2613,-23.8895],[-45.263,-23.889],[-45.2618,-23.8875],[-45.2599,-23.8884]],[[-45.2767,-23.8521],[-45.278,-23.8536],[-45.2803,-23.853],[-45.2797,-23.8516],[-45.2767,-23.8521]],[[-45.1517,-23.8332],[-45.1534,-23.8365],[-45.1575,-23.8349],[-45.1597,-23.8307],[-45.154,-23.8272],[-45.1517,-23.8332]],[[-45.391,-23.8277],[-45.391,-23.8291],[-45.394,-23.8289],[-45.3923,-23.8275],[-45.391,-23.8277]],[[-45.2261,-23.8157],[-45.2291,-23.816],[-45.23,-23.8137],[-45.2275,-23.8132],[-45.2261,-23.8157]],[[-45.1148,-23.8071],[-45.1171,-23.8157],[-45.1234,-23.8152],[-45.132,-23.8124],[-45.1462,-23.8209],[-45.1613,-23.8054],[-45.1486,-23.7946],[-45.1383,-23.7924],[-45.1398,-23.7999],[-45.1242,-23.8039],[-45.1148,-23.8071]],[[-45.0146,-23.7468],[-45.0181,-23.7533],[-45.0093,-23.7522],[-45.0087,-23.7596],[-45.013,-23.7645],[-45.0203,-23.7634],[-45.0192,-23.7551],[-45.0251,-23.7498],[-45.0248,-23.7449],[-45.0198,-23.7435],[-45.0146,-23.7468]],[[-45.0237,-23.7415],[-45.025,-23.742],[-45.0254,-23.7408],[-45.0231,-23.7403],[-45.0237,-23.7415]],[[-45.2925,-23.7327],[-45.2899,-23.7363],[-45.2753,-23.7347],[-45.2663,-23.7428],[-45.2615,-23.7421],[-45.255,-23.7498],[-45.2584,-23.7587],[-45.2483,-23.7632],[-45.2451,-23.7612],[-45.2339,-23.776],[-45.2296,-23.7763],[-45.2342,-23.7825],[-45.2355,-23.7993],[-45.2419,-23.8084],[-45.2418,-23.8115],[-45.2374,-23.8105],[-45.2387,-23.8185],[-45.2483,-23.8244],[-45.2438,-23.8277],[-45.2446,-23.8313],[-45.2383,-23.831],[-45.2434,-23.836],[-45.2414,-23.8387],[-45.2324,-23.8359],[-45.2278,-23.8382],[-45.2382,-23.8433],[-45.2554,-23.8363],[-45.2723,-23.8383],[-45.2851,-23.85],[-45.2859,-23.8618],[-45.2839,-23.8602],[-45.285,-23.8624],[-45.2898,-23.8658],[-45.2877,-23.8726],[-45.2689,-23.8745],[-45.2682,-23.8787],[-45.277,-23.8833],[-45.2719,-23.8915],[-45.2615,-23.8916],[-45.2474,-23.9014],[-45.2426,-23.8917],[-45.2355,-23.899],[-45.2291,-23.8975],[-45.2242,-23.9027],[-45.2262,-23.9067],[-45.236,-23.9055],[-45.2381,-23.908],[-45.2379,-23.9237],[-45.2325,-23.9284],[-45.2368,-23.9337],[-45.2357,-23.9419],[-45.2267,-23.9408],[-45.2352,-23.9487],[-45.2381,-23.9579],[-45.2506,-23.9656],[-45.2673,-23.9633],[-45.2855,-23.9416],[-45.2795,-23.9288],[-45.2903,-23.91],[-45.3019,-23.9147],[-45.3037,-23.9079],[-45.3159,-23.9147],[-45.324,-23.9115],[-45.3318,-23.9158],[-45.3397,-23.925],[-45.3445,-23.9232],[-45.3433,-23.9199],[-45.3475,-23.9169],[-45.3583,-23.9282],[-45.3992,-23.9328],[-45.4069,-23.9383],[-45.4274,-23.9404],[-45.4432,-23.934],[-45.4597,-23.915],[-45.4617,-23.8878],[-45.4514,-23.8838],[-45.4417,-23.8718],[-45.4341,-23.8686],[-45.43,-23.8597],[-45.4179,-23.8587],[-45.4145,-23.8545],[-45.4164,-23.8524],[-45.4135,-23.8518],[-45.4118,-23.8465],[-45.3751,-23.8187],[-45.366,-23.81],[-45.3626,-23.7859],[-45.3584,-23.7846],[-45.3577,-23.7751],[-45.3532,-23.7732],[-45.3488,-23.7643],[-45.3481,-23.741],[-45.3428,-23.7358],[-45.341,-23.7271],[-45.3288,-23.721],[-45.3163,-23.7234],[-45.307,-23.7309],[-45.2925,-23.7327]]]}},{"type":"Feature","properties":{"canonico":"ILHA COMPRIDA","nome":"Ilha Comprida","uf":"SP","planeja":true},"geometry":{"type":"Polygon","coordinates":[[[-47.4416,-24.698],[-47.4874,-24.7149],[-47.5316,-24.7381],[-47.5832,-24.7696],[-47.6522,-24.8186],[-47.7721,-24.9129],[-47.8414,-24.9744],[-47.8733,-25.0121],[-47.8843,-25.0332],[-47.8876,-25.0532],[-47.9095,-25.0529],[-47.9139,-25.0513],[-47.913,-25.0421],[-47.9174,-25.0145],[-47.8999,-25.0041],[-47.8944,-24.9906],[-47.8839,-24.9902],[-47.8814,-24.9858],[-47.884,-24.9845],[-47.8714,-24.9808],[-47.8851,-24.9724],[-47.8906,-24.9801],[-47.8918,-24.9713],[-47.8882,-24.9652],[-47.8849,-24.9628],[-47.8718,-24.9677],[-47.8613,-24.9617],[-47.8525,-24.9393],[-47.8549,-24.9363],[-47.8287,-24.9205],[-47.8273,-24.9115],[-47.8386,-24.9075],[-47.8391,-24.9043],[-47.8302,-24.9049],[-47.8186,-24.9119],[-47.8096,-24.9112],[-47.8029,-24.9047],[-47.7998,-24.8891],[-47.7762,-24.8785],[-47.7643,-24.8584],[-47.7465,-24.8511],[-47.7339,-24.8352],[-47.714,-24.8298],[-47.6854,-24.8136],[-47.6656,-24.7921],[-47.6279,-24.7631],[-47.5896,-24.7463],[-47.582,-24.7381],[-47.5597,-24.7272],[-47.5491,-24.7195],[-47.5406,-24.706],[-47.5117,-24.7006],[-47.4784,-24.7053],[-47.448,-24.6882],[-47.4366,-24.6743],[-47.4321,-24.6841],[-47.4416,-24.698]]]}}]}